Distributors,Address,zipcode,operating radius,operating districts,lat,long
FrigorTec GmbH,"88279 Amtzell, Germany",88279,800,RegionalverbandSaarbruecken;KoblenzStadt;HelmstedtLand;Dahme_SpreewaldLand;AhrweilerLand;LandauinderPfalzStadt;Pfaffenhofena.d.IlmLand;RosenheimLandLand;DelmenhorstStadt;GoerlitzLand;SchaumburgLand;VogtlandLand;Bernkastel_WittlichLand;BarnimLand;Anhalt_BitterfeldLand,47.71538925,9.761246295289354
Rülke Kühlanlagen GmbH,"08056 Zwickau, Germany",8056,800,NuernbergerLandLand;WolfenbuettelLand;UelzenLand;PirmasensStadt;HerneStadt;Dessau_RosslauStadt;BirkenfeldLand;AnsbachLandLand;VulkaneifelLand;SpeyerStadt;Amberg;Marburg_BiedenkopfLand;MannheimUniversitaetsstadt;VerdenLand;BarnimLand,,
Wärmetechnik Quedlinburg GmbH & Co. KG,"06484 Quedlinburg, Germany",6484,800,FreisingLand;HildesheimLand;Maerkischer;NeustadtanderWeinstraße;SchaumburgLand;NortheimLand;AltenburgerLandLand;OberhausenStadt;FreudenstadtLand;BambergLandLand;KarlsruheLandLand;LoerrachLand;HeilbronnStadtStadt;ReutlingenLand;ErfurtStadt,,
Westfalia Wärmetechnik Heinrich Schröder GmbH,"32257 Bünde, Germany",32257,800,Nordfriesland;BerlinBundesland;Schwabach;RegionHannoverLand;VogelsbergLand;NuernbergerLandLand;RastattLand;WesterwaldLand;BayreuthLandLand;Unstrut_Hainich_Land;Trier_SaarburgLand;WiesbadenLandeshauptstadt;WeimarStadt;BiberachLand;KulmbachLand,52.200127939983744,8.57368924864759
Apollo Gößnitz GmbH,"04639 Gößnitz, Germany",4639,800,AhrweilerLand;Kasseldocumenta_Stadt;MiesbachLand;Kleve;FuerstenfeldbruckLand;RavensburgLand;OrtenauLand;BerchtesgadenerLandLand;KemptenAllgaeu;SoemmerdaLand;GrafschaftBentheimLand;Hameln_PyrmontLand;Olpe;Herford;St.WendelLand,,
Alfred Kaut GmbH & Co. Elektrizitäts Gesellschaft,"42277 Wuppertal, Germany",42277,800,NordsachsenLand;Ostholstein;Mansfeld_SuedharzLand;ZweibrueckenStadt;StuttgartLandeshauptstadt;KarlsruheLandLand;HeidelbergStadtStadt;WesermarschLand;Main_Taunus_Land;Soltau_FallingbostelLand;GoerlitzLand;OsnabrueckLand;HeidenheimLand;MoenchengladbachStadt;Freyung_GrafenauLand,51.28210375838886,7.220692893147857
Otto Schatte GmbH,"23554 Lübeck, Germany",23554,800,EmdenStadt;LeverkusenStadt;JerichowerLandLand;NordhausenLand;Oberbergischer;Minden_Luebbecke;Unna;Waldeck_FrankenbergLand;BoeblingenLand;Rhein_Erft_;Ansbach;Merzig_WadernLand;BrandenburganderHavel;BurgenlandLand;Mainz_BingenLand,53.8839356793477,10.674071860547306
SCHRAG GmbH & CO. KG,"73061 Ebersbach an der Fils, Germany",73061,800,Main_Taunus_Land;RegionHannoverLand;Weideni.d.OPf.;OldenburgOldenburgStadt;HalleSaaleStadt;MuensterStadt;EichsfeldLand;Minden_Luebbecke;AltenkirchenWesterwald;Oberbergischer;GoslarLand;TuebingenLand;StarnbergLand;Dithmarschen;Rhein_Pfalz_Land,48.71097021082479,9.521930455839517
BLOOM ENGINEERING EUROPA GmbH,"40549 Düsseldorf, Germany",40549,800,WolfsburgStadt;EichstaettLand;Saarpfalz_Land;LudwigshafenamRheinStadt;Siegen_Wittgenstein;FrankfurtOderStadt;Main_Kinzig_Land;HagenStadt;KulmbachLand;Aschaffenburg;Ludwigslust_Parchim;Kaufbeuren;ErfurtStadt;BraunschweigStadt;KaiserslauternStadt,51.233057256001565,6.72012990351158
Dr. Kurt Korsing GmbH & Co. KG,"50739 Köln-Bilderstöckchen, Germany",50739,800,Augsburg;HeidenheimLand;HohenloheLand;LeipzigLand;SaaleLand;Ostholstein;GrafschaftBentheimLand;RegionHannoverLand;Bayreuth;SuedlicheWeinstraßeLand;HeidelbergStadtStadt;CelleLand;MiltenbergLand;Dithmarschen;Dingolfing_LandauLand,50.978415590141296,6.927486903193078
Ing. Carl Friedmann GmbH + Co. KG,"92637 Weiden, Germany",92637,800,HerzogtumLauenburg;Rhein_Sieg_;GifhornLand;SchwerinLandeshauptstadt;LandshutLandLand;OberhausenStadt;Rhein_Neckar_Land;KulmbachLand;OffenbachLand;SalzlandLand;Schwabach;GoerlitzLand;BadDuerkheimLand;HofLandLand;WormsStadt,49.6704287,12.166984528812986
Kältetechnik aircool GmbH,"81829 Munich, Germany",81829,800,Straubing_BogenLand;BadToelz_Wolfratshausen;OldenburgLand;BadKreuznachLand;RotenburgWuemmeLand;Rheinisch_Bergischer;SuedlicheWeinstraßeLand;BiberachLand;AltoettingLand;Erlangen;RostockHansestadt;Dessau_RosslauStadt;HavellandLand;BarnimLand;PotsdamStadt,48.13201764492206,11.677867621221708
SHK SYSTEM PLAN GmbH,"03044 Cottbus, Germany",3044,800,SchwerinLandeshauptstadt;Borken;BottropStadt;Darmstadt_DieburgLand;LandauinderPfalzStadt;WiesbadenLandeshauptstadt;VerdenLand;Dillingena.d.DonauLand;PotsdamStadt;Bamberg;Rhein_Pfalz_Land;Wunsiedeli.Fichtelgebirge;EbersbergLand;HeidelbergStadtStadt;BurgenlandLand,,
SHL LEHMANN GmbH & CO KG,"72202 Nagold, Germany",72202,800,HeidelbergStadtStadt;HammStadt;Herford;Rheinisch_Bergischer;WuppertalStadt;Baden_BadenStadtStadt;OstallgaeuLand;SchweinfurtLandLand;Soltau_FallingbostelLand;KyffhaeuserLand;HerzogtumLauenburg;LichtenfelsLand;LandsbergamLechLand;Straubing_BogenLand;BerchtesgadenerLandLand,48.54347865,8.71973633066466
A. Bernd Fronda Kälte Klima Schankanlagen und Großküchentechnik,"45659 Recklinghausen, Germany",45659,800,FrankfurtOderStadt;RosenheimLandLand;GießenLand;Unstrut_Hainich_Land;BirkenfeldLand;LudwigsburgLand;Ostprignitz_RuppinLand;LichtenfelsLand;Erlangen;WiesbadenLandeshauptstadt;Rhein_Neuss;Baden_BadenStadtStadt;HolzmindenLand;RegionalverbandSaarbruecken;StadeLand,51.602296969037596,7.19018995382539
Abel Elektrotechnik GmbH & Co. KG,"84549 Engelsberg, Germany",84549,800,BoerdeLand;BerlinBundesland;BergstraßeLand;Dahme_SpreewaldLand;RastattLand;Kleve;BadDuerkheimLand;BautzenLand;Kaufbeuren;DachauLand;RemscheidStadt;BodenseeLand;DresdenStadt;LudwigsburgLand;Neustadta.d.Waldnaab,48.12969124999999,12.512000331248506
ABR Erdwärme GmbH,"15738 Zeuthen, Germany",15738,800,Minden_Luebbecke;Rhein_Hunsrueck_Land;WiesbadenLandeshauptstadt;Ludwigslust_Parchim;Rheinisch_Bergischer;AschaffenburgLand;BoerdeLand;Neumarkti.d.OPf.Land;Merzig_WadernLand;OsnabrueckStadt;LudwigsburgLand;ErzgebirgsLand;FrieslandLand;Main_Taunus_Land;Rhein_Neuss,52.3491233582443,13.62011752324731
Ahrens Solartechnik GmbH & Co. KG,"31675 Bückeburg, Germany",31675,800,DeggendorfLand;HammStadt;OberallgaeuLand;EisenachStadt;BarnimLand;Neustadta.d.Aisch_BadW.;Limburg_WeilburgLand;Weißenburg_Gunzenhausen;Rheingau_Taunus_Land;KarlsruheLandLand;Rems_Murr_Land;BadKreuznachLand;Paderborn;HildburghausenLand;Passau,52.29280015,9.030864114045734
Ahrensburger Zentralheizungsbau GmbH,"22926 Ahrensburg, Germany",22926,800,Darmstadt_DieburgLand;Teltow_FlaemingLand;MiltenbergLand;Rhein_Sieg_;Ansbach;Neustadta.d.Waldnaab;Rhein_Neckar_Land;Mettmann;Kleve;Warendorf;EsslingenLand;St.WendelLand;Oder_SpreeLand;Waldeck_FrankenbergLand;ReutlingenLand,53.67429606214972,10.231113141386134
aihtec SOLAR UG,"06110 Halle, Germany",6110,800,StaedteregionAachen;CoburgLandLand;Minden_Luebbecke;Main_Tauber_Land;FuerstenfeldbruckLand;Dahme_SpreewaldLand;BraunschweigStadt;Main_Kinzig_Land;Schwabach;KarlsruheLandLand;UnterallgaeuLand;BarnimLand;SuedwestpfalzLand;Cochem_ZellLand;RegionalverbandSaarbruecken,,
ait-deutschland GmbH,"95359 Kasendorf, Germany",95359,800,Main_Kinzig_Land;BremenBundesland;PassauLandLand;Wunsiedeli.Fichtelgebirge;Marburg_BiedenkopfLand;GoslarLand;LoerrachLand;SchwandorfLand;DuisburgStadt;AmmerlandLand;Vorpommern_Greifswald;BerlinBundesland;LuebeckHansestadt;Ingolstadt;OsnabrueckStadt,50.04048915,11.344080993371318
Alb Kältetechnik GmbH,"72336 Balingen, Germany",72336,800,Ilm_Land;BremenBundesland;EnzLand;CloppenburgLand;Rhein_Neckar_Land;TraunsteinLand;GuenzburgLand;KonstanzLand;OsnabrueckLand;BerchtesgadenerLandLand;BambergLandLand;Maerkisch_OderlandLand;Ennepe_Ruhr_;EisenachStadt;Bayreuth,48.26553717437079,8.862248307617705
ALBAN technische Anlagen GmbH,"35321 Laubach, Germany",35321,800,Main_Taunus_Land;Rems_Murr_Land;CloppenburgLand;Neustadta.d.Waldnaab;Potsdam_MittelmarkLand;MagdeburgLandeshauptstadt;TrierStadt;WartburgLand;AmmerlandLand;FreisingLand;Rosenheim;MuenchenLandLand;Soest;Merzig_WadernLand;SchwaebischHallLand,50.5347468,9.01147172266039
Alfons Weber GmbH,"40489 Düsseldorf, Germany",40489,800,Straubing;FrankenthalPfalzStadt;MuenchenLandLand;KoblenzStadt;NordhausenLand;Bayreuth;Ingolstadt;Saale_Orla_Land;SchwandorfLand;Saarpfalz_Land;Marburg_BiedenkopfLand;Weilheim_SchongauLand;OsterholzLand;SoemmerdaLand;NienburgWeserLand,51.31616845014951,6.755708225131697
Alois Mehlhart GmbH,"83209 Prien am Chiemsee, Germany",83209,400,KonstanzLand;KrefeldStadt;KronachLand;KulmbachLand;KuselLand,47.8554814,12.380791069659253
Alois Simon GmbH,"66424 Homburg, Germany",66424,400,LandsbergamLechLand;Landshut;LeerLand;LeverkusenStadt;LichtenfelsLand,49.32368432540942,7.334715405797603
Aloys Steffes Sanitär-Installation GmbH,"53859 Niederkassel-Mondorf, Germany",53859,400,Limburg_WeilburgLand;LindauBodenseeLand;Lippe;LoerrachLand;LudwigsburgLand,50.80803430735835,7.040302179608008
Alternative Energie Mielke,"25358 Horst (Holstein), Germany",25358,400,LudwigshafenamRheinStadt;Ludwigslust_Parchim;LuebeckHansestadt;Luechow_DannenbergLand;LueneburgLand,53.810221578643805,9.62052335029131
Alternative Technik Scherf GmbH,"03229 Altdöbern, Germany",3229,400,MagdeburgLandeshauptstadt;MannheimUniversitaetsstadt;Marburg_BiedenkopfLand;MecklenburgischeSeen;Memmingen,,
Jan Anders Bad & Heizungsbau - Meisterbetrieb,"02956 Rietschen, Germany",2956,400,Merzig_WadernLand;Mettmann;MiesbachLand;MiltenbergLand;Minden_Luebbecke,,
Andre Weick Innovative Haus und Umwelttechnik GmbH,"69168 Wiesloch, Germany",69168,400,MoenchengladbachStadt;MuensterStadt;Neuburg_Schrobenhausen;Neumarkti.d.OPf.Land;NeumuensterStadt,49.294623568255616,8.698198357308664
Andreas Krüger GmbH,"78224 Singen, Germany",78224,400,NeunkirchenLand;Neustadta.d.Aisch_BadW.;NeuwiedLand;NienburgWeserLand;Nordfriesland,47.76204189826086,8.853457189848971
Andreas Rudolf Meisterbetrieb,"95445 Bayreuth, Germany",95445,400,NordhausenLand;Nordwestmecklenburg;NortheimLand;Oberbergischer;OberhausenStadt,49.95078262132679,11.558401273473523
Anspach Sanitärservice,"56073 Koblenz, Germany",56073,400,OldenburgLand;Olpe;OsnabrueckLand;OsterholzLand;Ostholstein,50.34440775339493,7.561141838930252
API Energie- und Versorgungstechnik GmbH,"82166 Gräfelfing, Germany",82166,400,Paderborn;Passau;PeineLand;Pfaffenhofena.d.IlmLand;PforzheimStadtStadt,48.1221494,11.435932660256778
APPEL GmbH,"69181 Leimen, Germany",69181,400,Pinneberg;PirmasensStadt;Ploen;PotsdamStadt;RastattLand,49.344966593566426,8.681438800283717
Aqua-Solar,"64385 Reichelsheim, Germany",64385,400,RavensburgLand;Recklinghausen;RegenLand;Regensburg;RegionHannoverLand,49.70043805,8.84782296118301
Aust + Hartmann GmbH & Co.KG,"23996 Niendorf, Germany",23996,400,RegionalverbandSaarbruecken;Rems_Murr_Land;RemscheidStadt;Rendsburg_Eckernfoerde;ReutlingenLand,53.77394070337233,11.463455579976376
Autenrieth + Wehner GmbH,"36037 Fulda, Germany",36037,400,Rhein_Erft_;Rhein_Neuss;Rhein_Sieg_;Rheingau_Taunus_Land;Rosenheim,50.55347859515582,9.679081172366187
B. Hahn,"95119 Naila OT Marlesreuth, Germany",95119,400,Rostock;RotenburgWuemmeLand;RothLand;RottweilLand;SaaleLand,50.32832285,11.69696878699962
bad&heizung Griesche GmbH,"01558 Großenhain, Germany",1558,400,SaarlouisLand;SalzgitterStadt;SchaumburgLand;Schmalkalden_Meiningen;Schwabach,,
Baldur Weid,"56479 Rehe/Westerwald, Germany",56479,400,SchwandorfLand;Schweinfurt;Segeberg;Siegen_Wittgenstein;SigmaringenLand,50.61558265664086,8.044241900935658
Beck GmbH & Co KG,"40721 Hilden, Germany",40721,400,SoemmerdaLand;Soest;SolingenStadt;Soltau_FallingbostelLand;SonnebergLand,51.16619285,6.914028880079641
Becker GmbH,"67307 Göllheim, Germany",67307,400,SpeyerStadt;StadeLand;StaedteregionAachen;StarnbergLand;Steinburg,49.59193913855156,8.048817187532439
Beckers Regeltechnik GmbH,"47506 Neukirchen-Vluyn, Germany",47506,400,Steinfurt;StendalLand;Straubing;StuttgartLandeshauptstadt;SuhlStadt,51.43527775,6.5506149917785335
Beckmann GmbH,"24941 Flensburg, Germany",24941,400,Teltow_FlaemingLand;TirschenreuthLand;TraunsteinLand;TrierStadt;TuebingenLand,54.77491915,9.387348411186213
Berna Kühlanlagen GmbH,"08058 Zwickau, Germany",8058,400,TuttlingenLand;UelzenLand;Unna;VechtaLand;VerdenLand,,
Bernd Elsner Sanitär & Heizungstechnik,"14774 Brandenburg an der Havel, Germany",14774,400,Viersen;Vorpommern_Greifswald;Waldeck_FrankenbergLand;Warendorf;WartburgLand,52.3974682685955,12.416376818023561
Bernd Krämer Heizung-Elektro-Sanitär,"09116 Chemnitz, Germany",9116,400,Weilheim_SchongauLand;WeimarStadt;Weißenburg_Gunzenhausen;Wesel;WesermarschLand,,
Bernhard Roll GmbH,"14167 Berlin, Germany",14167,400,WesterwaldLand;WilhelmshavenStadt;WittenbergLand;WittmundLand;WolfenbuettelLand,52.42157845,13.27883356116847
Bernhard Werner GmbH,"42327 Wuppertal, Germany",42327,400,WolfsburgStadt;Wunsiedeli.Fichtelgebirge;WuppertalStadt;ZweibrueckenStadt,51.24288288071277,7.07462062021651
Berthold Herzog,"63814 Mainaschaff, Germany",63814,400,AhrweilerLand;Aichach_FriedbergLand;Alb_Donau_Land;AltenburgerLandLand;AltenkirchenWesterwald,49.9998872,9.086395035109849
BERUS Energietechnik e.K.,"88069 Tettnang, Germany",88069,400,AhrweilerLand;Aichach_FriedbergLand;Alb_Donau_Land;AltoettingLand;Alzey_WormsLand,47.6545925,9.604272433657734
BEY ELMAR GmbH & CO. KG,"64319 Pfungstadt, Germany",64319,400,AhrweilerLand;Aichach_FriedbergLand;Alb_Donau_Land;AltenburgerLandLand;AltenkirchenWesterwald,49.8024721,8.593209651944612
BIERTHER HEIZUNGSANLAGEN GmbH,"69126 Heidelberg, Germany",69126,400,AhrweilerLand;Aichach_FriedbergLand;Alb_Donau_Land;AltenkirchenWesterwald;Alzey_WormsLand,49.37683213315534,8.690933393159426
Blaffert Heizsysteme GmbH,"39524 Schönhausen, Germany",39524,400,AltenburgerLandLand;AltmarkSalzwedelLand;AmmerlandLand;Anhalt_BitterfeldLand;BarnimLand,52.669097893673545,12.06694595277346
Blatzheim & Sohn GmbH,"52372 Kreuzau, Germany",52372,400,AhrweilerLand;AltenkirchenWesterwald;Alzey_WormsLand;AmmerlandLand;Aschaffenburg,50.7383479,6.479966746998315
"boden & grundwasser, Dr. Jörg Danzer Dipl. Geoökologe","87527 Sonthofen, Germany",87527,400,Aichach_FriedbergLand;Alb_Donau_Land;AltoettingLand;Alzey_WormsLand;Amberg,47.5055914,10.269482173899465
Böhm GmbH,"04416 Markkleeberg, Germany",4416,400,AltenburgerLandLand;AltmarkSalzwedelLand;Amberg;Anhalt_BitterfeldLand;Ansbach,,
Börner + Co KG,"85053 Ingolstadt, Germany",85053,400,AhrweilerLand;Aichach_FriedbergLand;Alb_Donau_Land;AltenburgerLandLand;AltoettingLand,48.74609894429576,11.4513175550012
BRENNER GmbH - Beste Heizungs- & Elektro-Technologie,"71229 Leonberg - Höfingen, Germany",71229,400,AhrweilerLand;Aichach_FriedbergLand;Alb_Donau_Land;AltenkirchenWesterwald;AltoettingLand,48.78961225,9.000822581694354
Bruch Kälte und Klimatechnik,"42369 Wuppertal, Germany",42369,400,AhrweilerLand;AltenkirchenWesterwald;AltmarkSalzwedelLand;Alzey_WormsLand;AmmerlandLand,51.22652635526601,7.201824049011348
Budde GmbH und Co. KG,"30974 Wennigsen (Deister), Germany",30974,400,AhrweilerLand;AltenburgerLandLand;AltenkirchenWesterwald;AltmarkSalzwedelLand;AmmerlandLand,52.27071448731424,9.58411204933306
Bühr Lufttechnik GmbH,"70839 Gerlingen, Germany",70839,400,AhrweilerLand;Aichach_FriedbergLand;Alb_Donau_Land;AltenkirchenWesterwald;AltoettingLand,48.79815182162385,9.064921871079616
BURY Haustechnik GmbH,"79241 Ihringen, Germany",79241,400,AhrweilerLand;Aichach_FriedbergLand;Alb_Donau_Land;AltenkirchenWesterwald;Alzey_WormsLand,48.04543276753025,7.655091221980764
Butscher GmbH,"87471 Durach, Germany",87471,400,AhrweilerLand;Aichach_FriedbergLand;Alb_Donau_Land;AltoettingLand;Alzey_WormsLand,47.69649335,10.366545555635089
caldoa GmbH,"88046 Friedrichshafen, Germany",88046,400,AhrweilerLand;Aichach_FriedbergLand;Alb_Donau_Land;AltoettingLand;Alzey_WormsLand,47.65969015,9.504160347020761
Christoph Rechkemmer GmbH,"66292 Riegelsberg, Germany",66292,400,AhrweilerLand;Aichach_FriedbergLand;Alb_Donau_Land;AltenkirchenWesterwald;Alzey_WormsLand,49.30878835158419,6.935701052781656
Claus Grammerstorf Inh. Peter Marquardt e.K.,"23669 Timmendorfer Strand, Germany",23669,400,AltmarkSalzwedelLand;AmmerlandLand;AurichLand;BarnimLand;BielefeldStadt,53.99101983547429,10.799882253241309
CLIVENT Umwelttechnik,"78166 Donaueschingen, Germany",78166,200,Baden_BadenStadtStadt;BiberachLand;BirkenfeldLand;BoeblingenLand,47.94686125,8.530789753575341
ColdTec Kälte-Klima-Wärmepumpentechnik GmbH,"32602 Vlotho, Germany",32602,200,BielefeldStadt;BochumStadt;BottropStadt;BraunschweigStadt;BremenBundesland,52.15912859988332,8.84910215360975
Cooljoy GmbH & Co. KG,"51399 Burscheid, Germany",51399,200,AhrweilerLand;AltenkirchenWesterwald;Bernkastel_WittlichLand;BielefeldStadt;BochumStadt,51.09124785,7.1190629508389796
COOLTHERM Kälteanlagen und Wärmepumpen GmbH,"63755 Alzenau, Germany",63755,200,AhrweilerLand;AltenkirchenWesterwald;Alzey_WormsLand;Aschaffenburg;BadDuerkheimLand,50.083773050000005,9.07302251363447
Cramer Klimatechnik Inh. Dipl.-Ing. Heinz Herbert ScheiffarthHeinz-Herbert Scheiffarth,"42107 Wuppertal, Germany",42107,200,AltenkirchenWesterwald;Bernkastel_WittlichLand;BielefeldStadt;BochumStadt;BonnStadt,51.264205070809695,7.154320618114833
Cube Ingenieurunion GmbH,"67549 Worms, Germany",67549,200,AhrweilerLand;AltenkirchenWesterwald;Alzey_WormsLand;Aschaffenburg;BadDuerkheimLand,49.63883021667088,8.336991899502399
"Dages, Huber & Schildbach OHG","87675 Stötten a. Auerberg, Germany",87675,200,Aichach_FriedbergLand;Alb_Donau_Land;Augsburg;BadToelz_Wolfratshausen;BergstraßeLand,47.7417759,10.70083128089979
Daschner GmbH,"47169 Duisburg, Germany",47169,200,AltenkirchenWesterwald;BielefeldStadt;BochumStadt;BonnStadt;Borken,51.512065443299335,6.761445907514831
DIAMANT Heiz- und Klimasysteme GmbH,"73635 Rudersberg, Germany",73635,200,Aichach_FriedbergLand;Alb_Donau_Land;Alzey_WormsLand;Ansbach;Aschaffenburg,48.88106605,9.53657935494483
Dipl.-Ing. (FH) Ingo Jürgena,"26639 Wiesmoor, Germany",26639,200,AmmerlandLand;AurichLand;BremenBundesland,53.41439575,7.725996287431336
Dipl.-Ing. EDUARD JORDAN Haustechnik GmbH,"18211 Bargeshagen, Germany",18211,200,Segeberg;Ludwigslust_Parchim;Luechow_DannenbergLand;Vorpommern_Ruegen;Ostholstein,54.132057317667886,11.948914614596285
Dipl.-Ing. Frank Günther e.K.,"21337 Lüneburg, Germany",21337,200,BraunschweigStadt;BremenBundesland,53.24793398061731,10.44020796972433
Dipl.-Ing.(FH) Karl Mayer GmbH,"54634 Bitburg, Germany",54634,200,AhrweilerLand;AltenkirchenWesterwald;Alzey_WormsLand;BadDuerkheimLand;Bernkastel_WittlichLand,49.968953218971436,6.528036193719653
Dirk Schmitz Heizungsbau & Sanitär,"53474 Bad Neuenahr-Ahrweiler, Germany",53474,200,AhrweilerLand;AltenkirchenWesterwald;Alzey_WormsLand;BadDuerkheimLand;Bernkastel_WittlichLand,50.541523495851685,7.12031243524209
Distelmaier GmbH,"22761 Hamburg, Germany",22761,200,AmmerlandLand;BremenBundesland,53.56542158356,9.914004926078032
Dr. Stadtbäumer Baugrunduntersuchung GmbH,"85609 Aschheim b. München, Germany",85609,200,Aichach_FriedbergLand;Alb_Donau_Land;AltoettingLand;Amberg;Ansbach,48.192658,11.714212191271919
DUDDA Energiesysteme Gmbh,"18258 Schwaan, Germany",18258,200,Vorpommern_Greifswald;Rostock;HerzogtumLauenburg,53.937002333328046,12.104252686969234
Dührkopp Haustechnik GmbH Co. KG,"14712 Rathenow, Germany",14712,200,AltmarkSalzwedelLand;Anhalt_BitterfeldLand;BarnimLand;BrandenburganderHavel;BraunschweigStadt,52.611308221476,12.341515033460675
Ebert - Bau GmbH Neubau - Umbau - Sanierung,"17033 Neubrandenburg, Germany",17033,200,BarnimLand;BrandenburganderHavel,53.5452587986691,13.25045859027817
Eichenauer Kälte- und Klimatechnik GmbH & Co. KG,"36367 Wartenberg - Angersbach, Germany",36367,200,AhrweilerLand;AltenkirchenWesterwald;Alzey_WormsLand;Aschaffenburg;BadKissingenLand,50.62387105,9.45089905063308
EISEN FISCHER GmbH,"86720 Nördlingen, Germany",86720,200,Aichach_FriedbergLand;Alb_Donau_Land;Amberg;Ansbach;Augsburg,48.8586179,10.495341998758175
ELBRA Elektrotechnik Bratschke GmbH,"42551 Velbert, Germany",42551,200,AltenkirchenWesterwald;Bernkastel_WittlichLand;BielefeldStadt;BochumStadt;BonnStadt,51.34330675251444,7.050640855991927
Elektro Fischer GmbH,"94152 Neuhaus – Reding, Germany",94152,200,AltoettingLand;BadToelz_Wolfratshausen;BerchtesgadenerLandLand;BergstraßeLand,48.4529484,13.410533506243578
Elektro Guggenmos GmbH & Co. KG,"87742 Dirlewang, Germany",87742,200,Aichach_FriedbergLand;Alb_Donau_Land;AltoettingLand;Augsburg;BadToelz_Wolfratshausen,48.00695217922661,10.506959789663538
Elektro Halbach Heinz Halbach GmbH & Co. KG,"42369 Wuppertal, Germany",42369,200,Bernkastel_WittlichLand;BielefeldStadt;BochumStadt;BonnStadt;Borken,51.22652635526601,7.201824049011348
Elektro Haupenthal,"55776 Rohrbach, Germany",55776,200,AhrweilerLand;AltenkirchenWesterwald;Alzey_WormsLand;Aschaffenburg;BadDuerkheimLand,49.584776751571425,7.242798585581299
Elektro Jost GmbH,"45289 Essen-Burgaltendorf, Germany",45289,200,AltenkirchenWesterwald;BielefeldStadt;BochumStadt;BonnStadt;Borken,51.416164930314636,7.111311750400402
Elektro Lübke KG,"24103 Kiel, Germany",24103,200,Soltau_FallingbostelLand,54.322843784775486,10.131450585349254
ELEKTRO Luckow & Söhne GmbH,"40721 Hilden, Germany",40721,200,AltenkirchenWesterwald;Bernkastel_WittlichLand;BielefeldStadt;BochumStadt;BonnStadt,51.16619285,6.914028880079641
Elektro Riedel Inh. Frank Riedel,"30916 Isernhagen, Germany",30916,200,AltmarkSalzwedelLand;AmmerlandLand;BielefeldStadt;BraunschweigStadt;BremenBundesland,52.45406536126935,9.85708924550884
Elektro Roßwein GmbH,"04741 Roßwein, Germany",4741,200,AltenburgerLandLand;AltmarkSalzwedelLand;Anhalt_BitterfeldLand;BautzenLand,,
ELEKTRO SCHNICKMANN GmbH,"51789 Lindlar-Hartegasse, Germany",51789,200,Mettmann;MuensterStadt;WittenbergLand;AltenkirchenWesterwald;DuisburgStadt,51.023344790272496,7.373047948725837
Elektro Zech GmbH,"87666 Pforzen, Germany",87666,200,LindauBodenseeLand;LandshutLandLand;BodenseeLand;SaaleLand;StuttgartLandeshauptstadt,47.935732200000004,10.611829457029227
Elektro-Beck,"73466 Lauchheim, Germany",73466,200,SigmaringenLand;Ingolstadt;RastattLand;Donau_RiesLand;GuenzburgLand,48.87152009637115,10.249688380464727
Elektro-Brezing,"72224 Ebhausen, Germany",72224,200,BadDuerkheimLand;WormsStadt;BirkenfeldLand;Memmingen;KarlsruheStadtStadt,48.60857125,8.670617045299148
Elektro-Horst GmbH,"06667 Tagewerben, Germany",6667,200,Bayreuth;SoemmerdaLand;NordsachsenLand;Elbe_ElsterLand;SaechsischeSchweiz_Osterz,,
Elektrotechnik Schenkendorf GmbH,"42897 Remscheid, Germany",42897,200,EssenStadt;Soest;Rhein_Neuss;OsnabrueckLand;Heinsberg,51.187505234221746,7.264249471013955
Elmar Schmid GmbH,"87488 Betzigau, Germany",87488,200,FuerstenfeldbruckLand;MuenchenLandLand;EsslingenLand;LandsbergamLechLand,47.7278131,10.41126141941994
Engelmann Installation,"39576 Stendal - OT Groß Schwechten, Germany",39576,200,BrandenburganderHavel;HarzLand;RegionHannoverLand;Maerkisch_OderlandLand;Ostprignitz_RuppinLand,52.60554850972737,11.847680815150014
ENGIE Refrigeration GmbH,"88131 Lindau, Germany",88131,200,Rottal_InnLand;TuttlingenLand;EmmendingenLand;BergstraßeLand;KemptenAllgaeu,47.57286685,9.686940863251925
Enneper und Schmermbeck KG,"58511 Lüdenscheid, Germany",58511,200,MuelheimanderRuhrStadt;Kleve;Coesfeld;MainzStadt;WartburgLand,51.21811915000001,7.651146488671737
Enspa-Energiesparsysteme,"63683 Ortenberg, Germany",63683,200,AschaffenburgLand;Main_Kinzig_Land;NeustadtanderWeinstraße;FrankenthalPfalzStadt;Oberbergischer,50.356603750000005,9.088058565190185
EnTech GmbH,"77815 Buhl, Germany",77815,200,Neustadta.d.Waldnaab;Alzey_WormsLand;Rheingau_Taunus_Land;FreudenstadtLand;MannheimUniversitaetsstadt,48.69775615455515,8.135489720000837
EPROPLAN GmbH Beratende Ingenieure,"70597 Stuttgart, Germany",70597,200,HeilbronnStadtStadt;BodenseeLand;WuerzburgLandLand;Rems_Murr_Land;Neustadta.d.Aisch_BadW.,48.74470654085455,9.169232271388557
Erhard Müller GmbH,"37181 Hardegsen, Germany",37181,200,WolfsburgStadt;WolfenbuettelLand;HolzmindenLand,51.654587449999994,9.82549573138985
Erich Kuhn GmbH,"22179 Hamburg, Germany",22179,200,LueneburgLand;CloppenburgLand,53.606202825035616,10.081075494384924
Ernst Schenk & Sohn GmbH Heizung und Sanitär,"47057 Duisburg, Germany",47057,200,OsnabrueckLand;MuensterStadt;SolingenStadt;Rhein_Sieg_;Mettmann,51.42467784308181,6.788731937895683
Erwin Merk GmbH,"89264 Weißenhorn, Germany",89264,200,HeilbronnStadtStadt;Rems_Murr_Land;GuenzburgLand;KarlsruheLandLand;HarburgLand,48.3020171,10.177888700200981
ETG Wiedholz Elektrotechnischer Fachgroßhandel,"86462 Langweid/Lech, Germany",86462,200,RegensburgLandLand;Memmingen;Ansbach;RosenheimLandLand;KitzingenLand,48.48088945,10.826741557738764
Eugen Bosch GmbH & Co. KG,"50823 Cologne, Germany",50823,200,Siegen_Wittgenstein;Oberbergischer;Soest;WiesbadenLandeshauptstadt;Coesfeld,50.94975484721943,6.923365932724571
Ewald Büttner GmbH,"63856 Bessenbach, Germany",63856,200,Neckar_Odenwald_;OffenbachamMainStadt;NeustadtanderWeinstraße;MainzStadt;ForchheimLand,49.9660696,9.252114800788133
F.Grassmugg Kälte-Klima-Technik,"71679 Asperg, Germany",71679,200,HohenloheLand;BadDuerkheimLand;SchweinfurtLandLand;Rhoen_GrabfeldLand;OdenwaldLand,48.9046078859641,9.138954993652025
F.O. Henneberg GmbH,"20354 Hamburg, Germany",20354,200,AmmerlandLand;VechtaLand,53.55587332583894,9.990383920721008
Faust GmbH,"56070 Koblenz, Germany",56070,200,Rhein_Sieg_;Heinsberg;EssenStadt;MuelheimanderRuhrStadt;RemscheidStadt,50.37494133836744,7.588230976525045
Fedder GmbH,"41462 Neuss, Germany",41462,200,BottropStadt,51.215655434109955,6.666674339199691
Fiedler Service GmbH,"13509 Berlin, Germany",13509,200,Oder_SpreeLand;Elbe_ElsterLand;MagdeburgLandeshauptstadt;LeipzigLand;AltmarkSalzwedelLand,52.59071885,13.298214993776469
Fiehl & Kersken GmbH,"50389 Wesseling, Germany",50389,200,HerneStadt;FrankenthalPfalzStadt;Coesfeld;HammStadt;Recklinghausen,50.815906346082045,6.977998337090839
Firma Kölling GmbH,"01561 Ebersbach OT Bieberach, Germany",1561,200,HavellandLand;ChemnitzStadt;Potsdam_MittelmarkLand,,
Fischer Elektrotechnik GmbH,"89584 Ehingen-Dächingen, Germany",89584,200,BoeblingenLand;OstallgaeuLand;Ingolstadt;StuttgartLandeshauptstadt;Schwarzwald_Baar_Land,48.28566035901308,9.716187626552221
Fischer GbR Bad & Heiztechnik,"59069 Hamm, Germany",59069,200,Maerkischer;DuesseldorfStadt;Herford;WartburgLand;Wesel,51.623348750000005,7.8688723140649675
FMH Bau-Meister GmbH & Co KG,"52070 Aachen, Germany",52070,200,MoenchengladbachStadt;Olpe;Rhein_Erft_;Heinsberg;Siegen_Wittgenstein,50.7832584505837,6.098154874177513
Francois Fiedler GmbH,"14089 Berlin-Kladow, Germany",14089,200,Spree_NeißeLand,52.470872549999996,13.151527738415702
Frank Widdel Haustechnik,"59063 Hamm, Germany",59063,200,BochumStadt;Marburg_BiedenkopfLand;Borken;OsnabrueckStadt;DiepholzLand,51.67203085,7.837455419292951
Franz Lanzinger GmbH,"86931 Prittriching, Germany",86931,200,Augsburg;Neu_UlmLand;Weideni.d.OPf.;Neumarkti.d.OPf.Land;FreisingLand,48.198883249999994,10.926865826408914
FRIELING FRITZ GmbH,"49393 Lohne (Oldenburg), Germany",49393,200,Guetersloh;StadeLand;Hameln_PyrmontLand;Recklinghausen;WuppertalStadt,52.66118125,8.228908928665907
Fritsch GmbH Heizungen und Bäder,"76437 Rastatt, Germany",76437,200,SuedwestpfalzLand;Neu_UlmLand;Aschaffenburg;Rhein_Lahn_Land;WiesbadenLandeshauptstadt,48.866519350000004,8.18452642549805
Fritz Laxganger GmbH,"83119 Obing, Germany",83119,200,SchwandorfLand;OstallgaeuLand;Neuburg_Schrobenhausen;Passau;ChamLand,48.01504925,12.393458950726489
Fuchs Heizung + Haustechnik GmbH,"53840 Troisdorf, Germany",53840,200,Rhein_Lahn_Land;BottropStadt;WittenbergLand;Rhein_Erft_;OffenbachLand,50.81089034725922,7.162176854136267
Fuhrer Kälte & Klimatechnik,"72108 Rottenburg-Oberndorf, Germany",72108,200,KarlsruheStadtStadt;Wuerzburg;Dingolfing_LandauLand;MiltenbergLand;TuttlingenLand,48.46967965,8.934589874858336
G.U.T. Gebäude- und Umwelttechnik GmbH,"26180 Rastede, Germany",26180,200,CuxhavenLand;EmslandLand;RotenburgWuemmeLand;BremenBundesland;CloppenburgLand,53.24468722976924,8.203744334867308
Gabriel GmbH Heizung Sonne Bad,"88371 Boos, Germany",88371,200,KarlsruheLandLand;Rottal_InnLand;Memmingen;StuttgartLandeshauptstadt,47.9693331,9.592429117547399
Garbe Elektro- und Solartechnik GmbH,"47589 Uedem, Germany",47589,200,Oberbergischer;OsnabrueckLand;WuppertalStadt;DuesseldorfStadt,51.675578599999994,6.29360172348578
Gellert & Meitzner GmbH,"03172 Schenkendöbern, Germany",3172,200,Spree_NeißeLand;BautzenLand,,
Gemeinhardt AG,"95145 Oberkotzau, Germany",95145,200,FuerthLandLand;SaechsischeSchweiz_Osterz;KitzingenLand;Rhoen_GrabfeldLand;ChamLand,50.2573776,11.925640376067093
genotec GmbH und Co. KG,"52538 Gangelt, Germany",52538,200,Rhein_Neuss;LeverkusenStadt;DuesseldorfStadt;DuisburgStadt;Maerkischer,51.00737995,5.984794334299872
GeoClimaDesign AG,"15517 Fürstenwalde / Spree, Germany",15517,200,Teltow_FlaemingLand;HarzLand,52.374742850000004,14.067119397345781
Georg Bergsteiner GmbH,"85077 Manching-Oberstimm, Germany",85077,200,KulmbachLand;BodenseeLand;Donau_RiesLand;Ingolstadt;FuerthLandLand,48.71658625,11.490985645643757
GeoSolar Energietechnik GmbH,"15370 Fredersdorf, Germany",15370,200,AltmarkSalzwedelLand;Spree_NeißeLand;Potsdam_MittelmarkLand,52.5189856,13.779896376943707
Gerd Albert GmbH,"66115 Saarbrücken, Germany",66115,200,Main_Kinzig_Land;Neustadta.d.Aisch_BadW.;LudwigshafenamRheinStadt;Trier_SaarburgLand;EifelBitburg_PruemLand,49.2450014459409,6.949541743921843
GIB Gewerbe-und Industriebau GmbH,"04720 Döbeln, Germany",4720,200,Wunsiedeli.Fichtelgebirge;Hof;WeimarerLandLand,,
Graf GmbH,"86381 Krumbach/Niederraunau, Germany",86381,200,KemptenAllgaeu;TuttlingenLand;Memmingen;EbersbergLand;AugsburgLandLand,48.24325734544011,10.369003916739796
Graf Haustechnik GmbH,"92421 Schwandorf, Germany",92421,200,KulmbachLand;WuerzburgLandLand;DachauLand;Hof;CoburgLandLand,49.3153268,12.065086700213325
Grube's Zentralheizungsbau- und Haustechnik Dipl.-Ing. Alexander Ebel GmbH,"22145 Hamburg, Germany",22145,200,LueneburgLand;OldenburgLand;RotenburgWuemmeLand;Schleswig_Flensburg,53.627230463728175,10.166451683328038
Günter Weller GmbH,"74369 Löchgau, Germany",74369,200,Weißenburg_Gunzenhausen;LandauinderPfalzStadt;Memmingen;Rhein_Hunsrueck_Land;HohenloheLand,49.00236321816789,9.1085178531216
Günther GmbH Heizung Sanitär Bauklempnerei,"45139 Essen, Germany",45139,200,EmslandLand;BochumStadt;KoelnStadt;RemscheidStadt;LeverkusenStadt,51.45863688013088,7.040967059884846
Guske Elektro GmbH & Co. KG,"39606 Flessau, Germany",39606,200,Teltow_FlaemingLand;PeineLand;BoerdeLand;Spree_NeißeLand;BrandenburganderHavel,52.79056820804544,11.730477611087315
GYRO BAUTECHNIK GmbH,"45356 Essen, Germany",45356,200,Lippe;HerneStadt;DuesseldorfStadt;MoenchengladbachStadt;Paderborn,51.48431543195153,6.974798271797249
h e i n e n GmbH,"50825 Cologne, Germany",50825,200,GelsenkirchenStadt;Coesfeld;Dueren;SolingenStadt;Marburg_BiedenkopfLand,50.95687355751755,6.914278482732996
H. Jürgens KG,"26629 Großefehn, Germany",26629,200,Minden_Luebbecke,53.397007450000004,7.598084407266338
H. Reuter GmbH,"45127 Essen, Germany",45127,200,DuesseldorfStadt;Unna;WittenbergLand;Guetersloh;Waldeck_FrankenbergLand,51.456920109539574,7.0109605144224245
H. Timm GmbH,"31515 Wunstorf, Germany",31515,200,BraunschweigStadt;PeineLand;HolzmindenLand;OsnabrueckStadt;SalzgitterStadt,52.43251098172597,9.404135345901585
H.-D. Ruß GmbH Energietechnik,"65201 Wiesbaden, Germany",65201,150,WetterauLand;KoblenzStadt;EifelBitburg_PruemLand;Limburg_WeilburgLand;AschaffenburgLand,50.05297929511992,8.184961236413109
Haas + Mandau GmbH,"79541 Lörrach, Germany",79541,150,Breisgau_Hochschwarzwald,47.64014375,7.690329139447586
Haberland Heizung-Sanitär GmbH,"09390 Gornsdorf, Germany",9390,150,MittelsachsenLand;WeimarerLandLand;ZwickauLand;Groß_GerauLand,,
Hafner-Muschler Kälte- und Klimatechnik GmbH & Co KG,"72336 Balingen, Germany",72336,150,FreudenstadtLand;UlmUniversitaetsstadtStadt;KarlsruheStadtStadt;Schwarzwald_Baar_Land,48.26553717437079,8.862248307617705
Handelshof Bautzen GmbH,"02625 Bautzen, Germany",2625,150,CottbusStadt,,
Handrick & Schumann GmbH,"09337 Callenberg, Germany",9337,150,KyffhaeuserLand;DresdenStadt;LeipzigLand;JenaStadt,,
"HANS BÖHM Sanitär-, Solar- und Heizungstechnik","42657 Solingen, Germany",42657,150,Kleve;HagenStadt;Recklinghausen;Siegen_Wittgenstein;Olpe,51.14989673813634,7.066625255640281
Hans Meirandres GmbH,"83022 Rosenheim, Germany",83022,150,FreisingLand;Aichach_FriedbergLand;BerchtesgadenerLandLand;Nuernberg,47.85588381173345,12.12747521989396
Hans Schramm GmbH & Co. KG,"80337 Munich, Germany",80337,150,TraunsteinLand;RegensburgLandLand;SaaleLand,48.127235419309905,11.557971683374944
Hans und Fred Brandstetter,"72622 Nürtingen, Germany",72622,150,Rhein_Neckar_Land;RottweilLand;LandauinderPfalzStadt,48.61646925,9.352172477509349
Hans Zacher GmbH - Zacher Welten,"55543 Bad Kreuznach, Germany",55543,150,OffenbachLand;Neustadta.d.Aisch_BadW.;NeunkirchenLand;LudwigshafenamRheinStadt;HeidelbergStadtStadt,49.83861100243044,7.865336376052836
Hans-Peter Stritt,"78628 Rottweil, Germany",78628,150,RottweilLand;GoeppingenLand,48.17000845,8.657361158909008
Harald Schütz Heizungsbau & Sanitär GmbH,"97355 Kleinlangheim, Germany",97355,150,Bayreuth;KulmbachLand;WetterauLand;SchweinfurtLandLand;Fuerth,49.75532955,10.34332367108848
Harry Schieck GmbH,"09130 Chemnitz, Germany",9130,150,MittelsachsenLand;ZwickauLand,,
Haubrich GmbH,"46045 Oberhausen, Germany",46045,150,Hochsauerland;Kleve;Warendorf;Rhein_Erft_;LeverkusenStadt,51.466504376711,6.858076538889388
Hausmann GmbH,"26689 Apen, Germany",26689,150,OldenburgLand;RotenburgWuemmeLand,53.2103818,7.778254061281963
Hausmann Haustechnik GmbH & Co. KG,"91154 Roth, Germany",91154,150,Fuerth;ForchheimLand;KulmbachLand;Muehldorfa.InnLand,49.23688415,11.118101625557134
Haustechnik Hart GmbH & CO. KG,"97222 Rimpar, Germany",97222,150,Main_Kinzig_Land;SchweinfurtLandLand;FrankfurtOderStadt;Main_SpessartLand,49.8909863,9.956505744419951
Haustechnik Kröber,"56244 Schenkelberg, Germany",56244,150,Rhein_Hunsrueck_Land;GießenLand;Cochem_ZellLand;Rhein_Sieg_,50.54272819564337,7.795634866486706
Haustechnik Neuroth GmbH,"58730 Fröndenberg-Dellwig, Germany",58730,150,AltenkirchenWesterwald;BonnStadt;Hersfeld_RotenburgLand;BielefeldStadt;WartburgLand,51.4982107,7.771055687019938
Haustechnik Scherer GmbH,"66128 Saarbrücken, Germany",66128,150,Bernkastel_WittlichLand;Merzig_WadernLand;Saarpfalz_Land;ZweibrueckenStadt;KuselLand,49.23570426713049,6.916979520267944
Haustechnik Team GmbH,"01324 Dresden, Germany",1324,150,Groß_GerauLand;ZwickauLand,,
Haustechnik Thallwitz GmbH,"04808 Thallwitz, Germany",4808,150,AltenburgerLandLand;HalleSaaleStadt,,
Haustechnik Voßwinkel GmbH,"51515 Kürten, Germany",51515,150,MuensterStadt;Soest;WittenbergLand,51.03651495,7.253692842909091
Haustechnik-Feldmann,"31812 Bad Pyrmont, Germany",31812,150,NordhausenLand;WolfenbuettelLand;RegionHannoverLand,51.966026299999996,9.309002091493305
Heimö L. Möbius & Co. GmbH,"06886 Wittenberg, Germany",6886,150,Teltow_FlaemingLand,,
Heine GmbH & Co. KG - Heizung - Sanitär - Klima,"32278 Kirchlengern, Germany",32278,150,DiepholzLand;BielefeldStadt;OsnabrueckLand;Warendorf;HolzmindenLand,52.21778415,8.65225666749662
Heinz Burkhardt GmbH & Co. KG,"75389 Neuweiler, Germany",75389,150,NeustadtanderWeinstraße;OrtenauLand;TuttlingenLand,48.67144245,8.609554538138532
Heinz Zoch GmbH,"27751 Delmenhorst, Germany",27751,150,WilhelmshavenStadt;AmmerlandLand,53.067992950000004,8.673102888934274
Heinz-Jürgen Schröter GmbH,"01796 Pirna, Germany",1796,150,SaechsischeSchweiz_Osterz,,
Heizen for You VOGEL GmbH - HEIZUNGEN + BÄDER,"99438 Bad Berka, Germany",99438,150,ErfurtStadt,50.89924634545694,11.266938632485221
Heiztechnik Mengel,"64401 Groß-Bieberau, Germany",64401,150,AhrweilerLand;GießenLand;Limburg_WeilburgLand;HohenloheLand;MannheimUniversitaetsstadt,49.785730400000006,8.815546593986621
Heizung & Sanitär Achim Hambücken,"50859 Köln Lövenich, Germany",50859,150,Rhein_Neuss;MuelheimanderRuhrStadt;Dueren;NeuwiedLand;DuisburgStadt,50.95439486178779,6.831075807458898
Heizung Notdienst Berlin,"12161 Berlin, Germany",12161,150,BerlinBundesland;SalzlandLand,52.470676850000004,13.326061823459202
Heizung-Sanitär-Lüftung GmbH,"45884 Gelsenkirchen, Germany",45884,150,BochumStadt;Wesel,51.491782395705464,7.0844184735310005
Hengmith Kälte- Klima- Technik GmbH,"73095 Albershausen, Germany",73095,150,HohenloheLand;LudwigsburgLand,48.693911166794194,9.56289519861636
HERCO Kühltechnik Hermanns u. Co. GmbH,"46485 Wesel, Germany",46485,150,DortmundStadt;KrefeldStadt;Ennepe_Ruhr_,51.665973765835005,6.644380459407364
HERKT GmbH HEIZUNG SANITAER,"03042 Cottbus, Germany",3042,150,DresdenStadt,,
Hermann Schmitt GmbH,"66679 Losheim-Rimlingen, Germany",66679,150,Merzig_WadernLand;SuedwestpfalzLand,49.50557638701636,6.738577974563169
"Hermann-Josef Cleve, Sanitär- und Heizungstechnik e.K. - Inh. Michael Cleve","41462 Neuss, Germany",41462,150,Viersen;Unna;DortmundStadt;Coesfeld;DuisburgStadt,51.215655434109955,6.666674339199691
Hess Kälte & Klimatechnik GmbH,"83098 Brannenburg, Germany",83098,150,Pfaffenhofena.d.IlmLand;BerchtesgadenerLandLand,47.7292573,12.062684872950399
Hesse Bad+Heizung GmbH & Co. KG,"58239 Schwerte, Germany",58239,150,Coesfeld;Paderborn,51.43065445,7.568047869412695
Hesselbach GmbH,"42853 Remscheid, Germany",42853,150,Mettmann;MuelheimanderRuhrStadt;Heinsberg;KoblenzStadt;Oberbergischer,51.18307049191557,7.183036678192349
HIDROS Deutschland,"53359 Rheinbach, Germany",53359,150,Cochem_ZellLand;HerneStadt;LeverkusenStadt;Siegen_Wittgenstein;DuisburgStadt,50.620085628066434,6.9505987095340656
Höber GmbH,"94034 Passau, Germany",94034,150,Landshut;RegensburgLandLand,48.593963,13.449846018325061
Höfer GmbH,"56170 Bendorf, Germany",56170,150,DuesseldorfStadt;GießenLand;Rhein_Pfalz_Land,50.43208246253788,7.5744465593265415
Höffken GmbH,"47057 Duisburg-Neudorf, Germany",47057,150,EmslandLand;Rhein_Neuss;Rhein_Erft_;MuelheimanderRuhrStadt,51.42467784308181,6.788731937895683
Holz und Sonne - GmbH,"76855 Annweiler, Germany",76855,150,Dillingena.d.DonauLand;KaiserslauternLand;Darmstadt,49.207959849999995,7.963378951198413
Hopff e.K. Bäder - Sanitär - Heizungsanlagen,"46047 Oberhausen, Germany",46047,150,Recklinghausen;NeuwiedLand;Rhein_Neuss;MuelheimanderRuhrStadt,51.476079601644834,6.8806124027035045
Horst Hüller GmbH,"38446 Wolfsburg, Germany",38446,150,UelzenLand;SalzgitterStadt;Hameln_PyrmontLand;WolfenbuettelLand;CelleLand,52.375079549999995,10.834302226506942
HRV Kälte-Klima GmbH Kälte - Klima - Lüftungsbau,"52068 Aachen, Germany",52068,150,Rhein_Erft_,50.77658938846035,6.123028043888653
HSB Seefeldt GmbH,"47877 Willich, Germany",47877,150,Wesel;RemscheidStadt;Dueren,51.26128575,6.523193167643983
HSF Künzel GmbH,"04509 Delitzsch, Germany",4509,150,OberhavelLand;NordsachsenLand;Anhalt_BitterfeldLand,,
Hübner GmbH Gebäudetechnik,"74743 Seckach, Germany",74743,150,WiesbadenLandeshauptstadt;Main_Kinzig_Land;SpeyerStadt;BadKissingenLand;Schweinfurt,49.43584894999999,9.337599991895537
Huhn Haustechnik GmbH,"61348 Bad Homburg, Germany",61348,150,EifelBitburg_PruemLand;NeuwiedLand;Mainz_BingenLand;Aschaffenburg;WiesbadenLandeshauptstadt,50.226414956668414,8.61137138590495
Hunke GmbH - Heizung - Sanitär,"59427 Unna, Germany",59427,150,Rhein_Sieg_;OsnabrueckStadt;HagenStadt;BonnStadt;MuelheimanderRuhrStadt,51.53448865,7.783236477141998
Hüttenbrauck Kälte-Klimatechnik GmbH,"56077 Koblenz, Germany",56077,150,GrafschaftBentheimLand;NeuwiedLand;Rhein_Pfalz_Land;Alzey_WormsLand;OffenbachamMainStadt,50.363412706164084,7.626696871244947
hydro-fact Matthias Maaßen,"52525 Heinsberg, Germany",52525,150,MoenchengladbachStadt;Hochsauerland,51.059312899999995,6.068108468436552
Hydrodrill Bohrgesellschaft GbR,"89362 Offingen, Germany",89362,150,BoeblingenLand;GuenzburgLand;GoeppingenLand;Weißenburg_Gunzenhausen;LudwigsburgLand,48.48083935,10.374658626214856
Igor Berezin Meisterbetrieb,"58644 Iserlohn, Germany",58644,150,AltenkirchenWesterwald;Oberbergischer;BonnStadt;Olpe;OberhausenStadt,51.340474650000004,7.685585893779903
Ing. D. Raubald GmbH,"38855 Wernigerode, Germany",38855,150,NordhausenLand;Dessau_RosslauStadt;HildesheimLand,51.841250696509974,10.786177770142162
Ing. Fritz Bissert GmbH & Co. KG,"65719 Hofheim, Germany",65719,150,NeuwiedLand;FrankfurtamMainStadt;VogelsbergLand;Rhoen_GrabfeldLand;Rhein_Sieg_,50.0858055028915,8.41457328223152
Innovative Bausysteme GmbH,"09669 Frankenberg, Germany",9669,150,WeimarStadt,,
ISH Innovative Sanitär- & Heizungstechnik,"19386 Lübz, Germany",19386,150,LueneburgLand;Luechow_DannenbergLand,53.4641591169203,12.052273945037257
ITE Industrievertretung Torsten Enders,"09496 Pobershau, Germany",9496,150,MittelsachsenLand;HofLandLand;ZwickauLand,,
Jakob Drehwald GmbH,"55116 Mainz, Germany",55116,150,LudwigshafenamRheinStadt;GrafschaftBentheimLand;PirmasensStadt,49.99931595978292,8.270097236355852
Jan Labanc,"54310 Ralingen, Germany",54310,150,RegionalverbandSaarbruecken;SuedwestpfalzLand;Merzig_WadernLand,49.80630679580293,6.514866688668237
JANSSEN CARL HEINZ GmbH,"31061 Alfeld (Leine), Germany",31061,150,Guetersloh;WolfsburgStadt,51.98658215705693,9.815952780933713
Johann Nendel Sanitär- und Heizungstechnik GmbH,"91056 Erlangen, Germany",91056,150,EichstaettLand;ForchheimLand,49.589105849999996,10.954376203489753
Johann Schwaiger GmbH,"83471 Berchtesgaden, Germany",83471,150,BerchtesgadenerLandLand,47.5932254,13.005234541566711
Johs. Lenz GmbH,"22113 Oststeinbek, Germany",22113,150,Soltau_FallingbostelLand;HamburgBundesland,53.53422687958341,10.149538576957653
Jordan & Kremer GmbH,"60316 Frankfurt am Main, Germany",60316,150,Mainz_BingenLand;Lahn_Dill_Land;Neustadta.d.Aisch_BadW.,50.1207448414116,8.696526018402373
Julius Gaiser GmbH & Co. KG,"89077 Ulm, Germany",89077,150,GoeppingenLand;LandsbergamLechLand;Memmingen;BiberachLand;UlmUniversitaetsstadtStadt,48.3923482,9.97116408139515
JUNG GmbH Sanitär & Heizungstechnik,"44797 Bochum, Germany",44797,150,OsnabrueckLand;BonnStadt;StaedteregionAachen;SolingenStadt;HagenStadt,51.43057868998478,7.230033332263188
Jura-Kälte GmbH,"91180 Heideck, Germany",91180,150,UnterallgaeuLand;Bayreuth;HarburgLand;AugsburgLandLand;KulmbachLand,49.12984735,11.11535641255102
Jürgen Heitger Ing. GmbH,"22419 Hamburg, Germany",22419,150,UelzenLand;DelmenhorstStadt;Rendsburg_Eckernfoerde,53.665784335629375,10.004295775929423
Jurisch Haustechnik GmbH,"01917 Kamenz/ OT Deutschbaselitz, Germany",1917,150,MittelsachsenLand,,
JW Haustechnik GmbH,"65760 Eschborn, Germany",65760,150,Main_Taunus_Land;KaiserslauternLand;Mainz_BingenLand;Main_SpessartLand;KarlsruheLandLand,50.150552887426564,8.55976214056235
K +K Kälte-Klimatechnik,"68723 Oftersheim, Germany",68723,150,Rems_Murr_Land;NeunkirchenLand;Neustadta.d.Waldnaab;Main_Kinzig_Land;HohenloheLand,49.387250812182096,8.578783023857458
Kälte Schübl GmbH,"93057 Regensburg, Germany",93057,150,NuernbergerLandLand;FreisingLand;PassauLandLand;LandshutLandLand;Freyung_GrafenauLand,49.0536886,12.11724016402971
Kälte- und Klimatechnik Hoefer - Inh. Lutz Thurmann,"29303 Bergen, Germany",29303,150,StadeLand,52.8061353,9.925799032642853
Kälte-Bast GmbH,"22525 Hamburg, Germany",22525,150,UelzenLand;Ludwigslust_Parchim,53.5868646109904,9.922965171616518
Kältetechnik Radeck & Jacobsen GmbH,"14513 Teltow, Germany",14513,150,PrignitzLand;BurgenlandLand,52.3826846,13.276557558292842
Karl Göpfert GmbH,"83512 Wasserburg, Germany",83512,150,OberallgaeuLand;StarnbergLand;EbersbergLand;Aichach_FriedbergLand;RegensburgLandLand,48.04986725,12.20508993512868
KEGA Kälte & Klima GmbH,"06313 Wimmelburg, Germany",6313,150,Dessau_RosslauStadt;BurgenlandLand,,
Kettner GmbH,"71083 Herrenberg, Germany",71083,150,Rhein_Neckar_Land;TuebingenLand,48.59972965,8.879578306679097
KEUL Fußbodenheizung Estrich-Fußbodenheizung-Baustoffhandel,"56132 Kemmenau, Germany",56132,150,FrankfurtOderStadt,50.324959544971925,7.694905222389169
Kinsky Dipl.-Ing. Alexander Henn eK,"58285 Gevelsberg, Germany",58285,150,WittenbergLand;Coesfeld;HammStadt;Euskirchen;Mettmann,51.335113899999996,7.353584382147622
KKM Haustechnik GmbH,"50823 Cologne, Germany",50823,150,HerneStadt;GelsenkirchenStadt;GrafschaftBentheimLand;Rhein_Neuss,50.94975484721943,6.923365932724571
KKT Kratochwil GmbH,"99974 Mühlhausen/Thüringen, Germany",99974,150,FuldaLand,51.2375983,10.461968567185986
Klima Jentzsch GmbH,"01623 Leuben-Schleinitz, Germany",1623,150,MeißenLand;MittelsachsenLand;GreizLand,,
"KLU Klima-, Luft- und Umwelttechnik Duisburg GmbH","47167 Duisburg, Germany",47167,150,Oberbergischer;BochumStadt;EmslandLand,51.5008097863635,6.798403596438563
KNIXA industrie + haustechnik GmbH,"92318 Neumarkt, Germany",92318,150,VerdenLand;Bayreuth;Ingolstadt;Main_SpessartLand;Wunsiedeli.Fichtelgebirge,49.278061949999994,11.487427901978727
Knothe Sanitär _ Heizung - Elektro GmbH,"44263 Dortmund, Germany",44263,150,MoenchengladbachStadt;Unna,51.48954256743802,7.503768132969681
KOESTER HEINRICH GmbH CO KG,"38100 Braunschweig, Germany",38100,150,Hameln_PyrmontLand,52.263974061032926,10.522687376505997
Kopp GmbH HLS-Technik,"94258 Frauenau, Germany",94258,150,DeggendorfLand;Straubing,48.983519900000005,13.336617166211225
Kopp Haustechnik GmbH,"34225 Baunatal, Germany",34225,150,HolzmindenLand;Hersfeld_RotenburgLand;Unna;Goettingen;Guetersloh,51.25452599657428,9.412648631962309
Kraft GmbH,"34125 Kassel, Germany",34125,150,Werra_Meißner_Land;Goettingen;GoslarLand,51.32889102565989,9.525132552370085
Krämer Erdwärme GmbH,"76706 Dettenheim-Rußheim, Germany",76706,150,FrankfurtOderStadt;LudwigshafenamRheinStadt;KarlsruheStadtStadt;SpeyerStadt;KaiserslauternStadt,49.172564731927196,8.41991459627964
Krause Schwimmbad-Technik,"21714 Hammah, Germany",21714,150,NeumuensterStadt;CuxhavenLand,53.619449369791646,9.369493754359851
KS Anlagentechnik GmbH,"03222 Lübbenau /Spreewald, Germany",3222,150,Potsdam_MittelmarkLand;Maerkisch_OderlandLand,,
"KS Kälte-, Klima- und Lüftungstechnik GmbH","55543 Bad Kreuznach, Germany",55543,150,SuedwestpfalzLand;MainzStadt;Rheingau_Taunus_Land;Limburg_WeilburgLand;Trier_SaarburgLand,49.83861100243044,7.865336376052836
Kühhorn GmbH,"90613 Großhabersdorf, Germany",90613,150,BambergLandLand;Main_Tauber_Land;Amberg_SulzbachLand;Erlangen_HoechstadtLand;RegensburgLandLand,49.4101744,10.783981966938764
Kunkel GmbH,"44359 Dortmund, Germany",44359,150,Euskirchen;DuesseldorfStadt;Hochsauerland;Coesfeld,51.56878724541716,7.38672277206876
Kupka GmbH,"44579 Castrop-Rauxel, Germany",44579,150,KrefeldStadt;Coesfeld;Borken;Rhein_Neuss;Unna,51.581497813456345,7.306871251317563
Kurt Höfflin Kälte- Klimatechnik,"79268 Bötzingen, Germany",79268,150,SigmaringenLand;RastattLand;EnzLand;EmmendingenLand,48.07143163108219,7.717286259929063
Kurtz Versorgungstechnik GmbH,"83543 Rott am Inn, Germany",83543,150,SaaleLand;EichstaettLand;Rheinisch_Bergischer,47.9875679,12.12717886208296
Lars Stoll GmbH Technischer Gebäudeservice,"20459 Hamburg, Germany",20459,150,Steinburg;Ludwigslust_Parchim;Ploen;Nordfriesland;KielLandeshauptstadt,53.54729831192201,9.979554249436212
Lenz GmbH,"53639 Königswinter, Germany",53639,150,Mayen_KoblenzLand;AltenkirchenWesterwald;Hochsauerland;Rhein_Lahn_Land;Limburg_WeilburgLand,50.70142452814435,7.240760463435367
Leo Beckmann GmbH,"48341 Münster-Altenberge, Germany",48341,150,DortmundStadt;Maerkischer;WittenbergLand;SolingenStadt;GelsenkirchenStadt,52.04249085,7.478208862605294
LET Löwer & Co. GmbH,"34277 Fuldabrück-Dörnhagen, Germany",34277,150,ErfurtStadt;Guetersloh;Goettingen;Soest;BielefeldStadt,51.24165207038556,9.501096113444722
"Leuendorff Gebäudetechnik, Energie- und Mineralölhandel GmbH","13125 Berlin, Germany",13125,150,Teltow_FlaemingLand;Elbe_ElsterLand,52.6370018,13.487047653624192
Liekam Haustechnik GmbH,"49076 Osnabrück, Germany",49076,150,Paderborn;BochumStadt;Minden_Luebbecke;CloppenburgLand;EssenStadt,52.28193249131152,8.019437376982838
Lindemann Haustechnik GmbH & Co. KG,"44879 Bochum-Linden, Germany",44879,150,Ennepe_Ruhr_;Mettmann,51.42988830225409,7.161485465236467
Lorenz Heizung - Lüftung - Klima GmbH,"61209 Echzell / Gettenau, Germany",61209,150,FrankfurtOderStadt;Main_Kinzig_Land;NeuwiedLand,50.38843645,8.894802547841
Löser + Anspach GmbH,"56070 Koblenz, Germany",56070,150,KoblenzStadt;Olpe;DuesseldorfStadt;OffenbachamMainStadt,50.37494133836744,7.588230976525045
Lothar Dörr e.K.,"55120 Mainz, Germany",55120,150,Alzey_WormsLand;VulkaneifelLand;Rheingau_Taunus_Land;MiltenbergLand;LudwigshafenamRheinStadt,50.01915066607493,8.22484169417063
Lothar Stefke Kälte und Klimatechnik,"74252 Massenbachhausen, Germany",74252,150,Rhein_Pfalz_Land;Darmstadt_DieburgLand;KarlsruheStadtStadt;AschaffenburgLand;HeilbronnStadtStadt,49.17689122434437,9.04800011982916
Lotter Metall GmbH + Co.KG,"04552 Borna / OT Zedtlitz, Germany",4552,150,GreizLand;Unstrut_Hainich_Land;MittelsachsenLand,,
Lüftungs Heizungs Sanitär Anlagenbau GmbH,"06779 Raguhn, Germany",6779,150,Oder_SpreeLand;BrandenburganderHavel,,
Lutz Elektro u. Sanitär GmbH,"38239 Salzgitter, Germany",38239,150,BoerdeLand;Mansfeld_SuedharzLand;StendalLand;WolfenbuettelLand,52.180844813543224,10.465228935962605
Maier & Sohn GmbH & Co. KG,"86381 Krumbach, Germany",86381,150,SigmaringenLand;StuttgartLandeshauptstadt;EsslingenLand;ReutlingenLand;EichstaettLand,48.24325734544011,10.369003916739796
MAMMUT Kühlanlagen GmbH,"57250 Netphen, Germany",57250,150,AhrweilerLand;Oberbergischer;WittenbergLand;Cochem_ZellLand;Limburg_WeilburgLand,50.904191851420286,8.12087144908431
Manfred Graf GmbH,"76185 Karlsruhe, Germany",76185,150,KaiserslauternLand;OrtenauLand;Rhein_Neckar_Land;RastattLand;Main_Taunus_Land,49.012034475458535,8.35992624112265
Manfred Mayer Bauspenglerei Sanitär Heizung,"89192 Rammingen, Germany",89192,150,PforzheimStadtStadt;BadToelz_Wolfratshausen;ReutlingenLand;HeidenheimLand;LindauBodenseeLand,48.51582982732211,10.169150768126306
Marc Schmitz GmbH,"50933 Cologne, Germany",50933,150,HerneStadt;Soest;Heinsberg;HammStadt;KoblenzStadt,50.941612258810395,6.881430488163071
Marcel Winkel poolshop123,"23566 Lübeck, Germany",23566,150,NeumuensterStadt;Rostock,53.86856148943599,10.725783574032501
MARIO SCHÖPE - Der Bad-Profi,"76228 Karlsruhe, Germany",76228,150,HeidelbergStadtStadt;BodenseeLand;BoeblingenLand;SuedlicheWeinstraßeLand;OdenwaldLand,48.9602234849485,8.478237415497182
Mark Ellendt,"27299 Langwedel, Germany",27299,150,CloppenburgLand;Pinneberg;PeineLand,53.00272385,9.18158574428481
Markus Schwich GmbH,"21357 Bardowick, Germany",21357,150,Soltau_FallingbostelLand,53.29825938703952,10.382503324264388
Marx GmbH,"79541 Lörrach-Brombach, Germany",79541,150,TuttlingenLand;LoerrachLand,47.64014375,7.690329139447586
Mayer Bauelemente GmbH,"69242 Mühlhausen, Germany",69242,150,BirkenfeldLand;Main_SpessartLand;HeilbronnStadtStadt;LandauinderPfalzStadt;Rhein_Hunsrueck_Land,49.24894801354977,8.725313919754116
MB Gebäudetechnik GmbH,"71332 Waiblingen, Germany",71332,150,Ansbach;MiltenbergLand;BoeblingenLand,48.8261624,9.30893859947955
Meisterbetrieb Heinz & Carmen Unterberg GbR,"47228 Duisburg, Germany",47228,150,HagenStadt;GelsenkirchenStadt;KrefeldStadt;MoenchengladbachStadt,51.41659545578077,6.687909816103471
Meisterbetrieb Jochen Buck,"72584 Hülben, Germany",72584,150,CalwLand;Alb_Donau_Land,48.52185255,9.40691777501071
Meisterbetrieb Simon Seeler,"87662 Markt Kaltental/Blonhofen, Germany",87662,150,Kaufbeuren;Augsburg,47.88987885,10.754931798192892
Metzler GmbH & Co KG,"63619 Bad Orb, Germany",63619,150,Aschaffenburg;Mainz_BingenLand;OffenbachLand,50.2273836323813,9.34802912973134
Meyer & Kohlmann GmbH & Co. KG Kälte- und Klimatechnik Remscheid,"42897 Remscheid, Germany",42897,150,Paderborn;KrefeldStadt;LeverkusenStadt;Guetersloh;Hochsauerland,51.187505234221746,7.264249471013955
Michael Schuba Klimatechnik,"47877 Willich, Germany",47877,150,HerneStadt;Maerkischer;EssenStadt;Mettmann;MuensterStadt,51.26128575,6.523193167643983
"Michael Türk Sanitär, Heiz- und Umwelttechnik GmbH","31157 Sarstedt, Germany",31157,150,BremenBundesland;HolzmindenLand;Schwalm_Eder_Land;SalzgitterStadt;Luechow_DannenbergLand,52.23643448184512,9.863498880764256
MODULTEQ GmbH & Co. KG,"13156 Berlin, Germany",13156,150,Teltow_FlaemingLand;PotsdamStadt;PrignitzLand,52.581411599999996,13.399532797838342
Möhring Versorgungstechnik GmbH & Möhring Gebäudemanagement GmbH,"27572 Bremerhaven, Germany",27572,150,WittmundLand,53.50752888618062,8.598787219167594
Molderings Haustechnik GmbH,"47647 Kerken-Aldekerk, Germany",47647,150,Ennepe_Ruhr_;Viersen;HammStadt;KoelnStadt;Recklinghausen,51.44834055,6.382046946929046
MT-Trading oHG,"21077 Hamburg, Germany",21077,150,OldenburgOldenburgStadt;Segeberg;HerzogtumLauenburg;HamburgBundesland,53.44131990909587,9.96026691524754
MÜHLING-MONTAGEN GmbH,"63920 Großheubach, Germany",63920,150,Main_SpessartLand;SchwaebischHallLand;Main_Taunus_Land;FrankfurtOderStadt,49.73466465,9.227454716001066
Nadler Klimatechnik AG,"70734 Fellbach, Germany",70734,150,AnsbachLandLand;EsslingenLand;GuenzburgLand;NeustadtanderWeinstraße;CalwLand,48.7984177,9.277421726541913
NaturEnergieLaden GmbH & Co KG,"38350 Helmstedt, Germany",38350,150,BoerdeLand;NortheimLand;WolfsburgStadt;Luechow_DannenbergLand,52.23241984354,11.004073167602053
NHW Energieservice GmbH,"21465 Reinbek, Germany",21465,150,NeumuensterStadt;GifhornLand;DelmenhorstStadt,53.52326241318857,10.247788010536448
Nicoara Wärme-Kälte-Klimatechnik Dipl. Ing. (FH) Lucian Nicoara,"72070 Tübingen, Germany",72070,150,UlmUniversitaetsstadtStadt;BoeblingenLand;SigmaringenLand,48.521532699999995,9.02584116562453
Nowak GmbH,"51429 Bergisch Gladbach, Germany",51429,150,Hochsauerland;SolingenStadt;BonnStadt;DortmundStadt;WittenbergLand,50.96837515,7.1869643908070024
OET Kälte & Wärme GmbH,"48607 Ochtrup, Germany",48607,150,LeverkusenStadt;Herford;MuelheimanderRuhrStadt;OsnabrueckStadt;Soest,52.2150857,7.172083783235706
OTTO HERMANN GmbH,"82008 Unterhaching, Germany",82008,150,OberallgaeuLand;Saale_Holzland_Land;MiesbachLand;Weilheim_SchongauLand;Landshut,48.0700547,11.622559599703935
"ÖwA - Öl- und Gasfeuerungen, Wärmetechnische Anlagen GmbH","45468 Mülheim, Germany",45468,150,Wesel;BonnStadt;DortmundStadt;HerneStadt,51.42849339551508,6.88654066145512
Pasberg & Neitzke GmbH,"31135 Hildesheim, Germany",31135,150,SchaumburgLand;Paderborn;GoslarLand;Herford;HelmstedtLand,52.158279938618364,9.976313408682747
Paul Heller GmbH & Co. KG,"33739 Bielefeld, Germany",33739,150,HildesheimLand;CelleLand;Hoexter;Kasseldocumenta_Stadt;MuensterStadt,52.085460651575815,8.520940663506645
Paul Trechten GmbH,"23758 Oldenburg in Holstein, Germany",23758,150,SchwerinLandeshauptstadt,54.29241968905965,10.884947998949935
PEKER Sanitär-Heizung-Solar,"68229 Mannheim, Germany",68229,150,AschaffenburgLand;BoeblingenLand;Darmstadt_DieburgLand;HeilbronnStadtStadt;Dingolfing_LandauLand,49.439426146678194,8.576346447777192
Pelzl Heizungsbau GmbH,"87600 Kaufbeuren, Germany",87600,150,UlmUniversitaetsstadtStadt;BadToelz_Wolfratshausen;Augsburg;Memmingen;EbersbergLand,47.88185435,10.603651287221375
Peter Berboth GmbH,"51063 Cologne, Germany",51063,150,BottropStadt;Rhein_Erft_;StaedteregionAachen;KoblenzStadt;Cochem_ZellLand,50.968370150150186,7.005581754033275
Peter Handrick GmbH,"09337 Callenberg/OT Falken, Germany",9337,150,GreizLand;WeimarerLandLand;ZwickauLand;ErzgebirgsLand,,
Peter Karl GmbH,"90579 Langenzenn, Germany",90579,150,Weißenburg_Gunzenhausen;KronachLand;KitzingenLand;Main_SpessartLand;HohenloheLand,49.48883485,10.781323586656931
Pfütze GmbH,"77933 Lahr, Germany",77933,150,HeidelbergStadtStadt;KarlsruheLandLand;EmmendingenLand;RottweilLand,48.335528214101146,7.865058977820647
Pingen Sanitär GmbH,"65843 Sulzbach, Germany",65843,150,Mainz_BingenLand;WetterauLand;NeustadtanderWeinstraße;Siegen_Wittgenstein;Waldeck_FrankenbergLand,50.13332405,8.532216674360956
PLA Pumpen- und Anlagenbau GmbH,"24568 Kaltenkirchen, Germany",24568,150,Ploen;BremenBundesland;RotenburgWuemmeLand,53.83219062345484,9.955560250683158
PMW Pumpen- und Maschinentechnik GmbH,"34576 Homberg-Berge, Germany",34576,150,NordhausenLand;KasselLand;NortheimLand,51.02987919993263,9.417879160703993
Poolservice-Salm,"55471 Biebern, Germany",55471,150,Bernkastel_WittlichLand;PirmasensStadt;Limburg_WeilburgLand;SpeyerStadt;NeuwiedLand,49.986385905901514,7.446717489006335
"Pries Heiztechnik, Inhaber: Anton Pries","90522 Oberasbach, Germany",90522,150,RothLand;Bayreuth;Bamberg;SaaleLand,49.4236043,10.970870907734696
PRIMATHERM® - Systemtechnik GmbH,"88480 Ulm, Germany",88480,150,Aichach_FriedbergLand;RottweilLand;GuenzburgLand;UlmUniversitaetsstadtStadt,48.26129858935186,9.916640801275186
Putzmeister Holding GmbH,"72631 Aichtal, Germany",72631,150,LandauinderPfalzStadt;StuttgartLandeshauptstadt;CalwLand;GoeppingenLand;SchwaebischHallLand,48.62785065,9.252390680962806
Räder & Fries GmbH,"67550 Worms-Abenheim, Germany",67550,150,Alzey_WormsLand;FrankenthalPfalzStadt;Dillingena.d.DonauLand;AschaffenburgLand;OffenbachamMainStadt,49.67746231299523,8.329233579652946
"Randecker GmbH, Sanitär- und Heizungsbau","72581 Dettingen an der Erms, Germany",72581,150,LandauinderPfalzStadt;Rems_Murr_Land;GoeppingenLand,48.5267153,9.360576557616142
Reichstädter Heizungsbau GmbH,"01744 Dippoldiswalde OT Reichstädt, Germany",1744,150,ErzgebirgsLand,,
Reimann Innovation und Umwelt,"03051 Cottbus, Germany",3051,150,BarnimLand,,
Reinhold Wenz & Söhne GmbH,"65329 Hohenstein - Breithardt, Germany",65329,150,Rheingau_Taunus_Land;OffenbachamMainStadt;AschaffenburgLand;Dingolfing_LandauLand,50.19573513092786,8.100996527008494
Remmetz Sanitär · Heizungstechnik,"47803 Krefeld, Germany",47803,150,Borken;Maerkischer;RemscheidStadt;KrefeldStadt,51.34670742632783,6.551211758057382
renopan AG,"53619 Rheinbreitbach, Germany",53619,150,DortmundStadt;GrafschaftBentheimLand;BottropStadt;StaedteregionAachen;Viersen,50.62047692711762,7.232342414202106
RIES GmbH,"64569 Nauheim, Germany",64569,150,SuedlicheWeinstraßeLand;Marburg_BiedenkopfLand;Rheingau_Taunus_Land;Main_Tauber_Land;AltenkirchenWesterwald,49.9528507,8.462535727778182
Rische Kälte- und Klimatechnik GmbH,"56751 Polch, Germany",56751,150,Mettmann;Alzey_WormsLand;OffenbachLand;RemscheidStadt;DuesseldorfStadt,50.298313238857865,7.311690430443422
RK-COOL GmbH,"03042 Cottbus, Germany",3042,150,Dahme_SpreewaldLand;CottbusStadt;GoerlitzLand;UckermarkLand,,
RK-Haustechnik GmbH,"86343 Königsbrunn, Germany",86343,150,GuenzburgLand;LandshutLandLand;Schwabach;UnterallgaeuLand;StarnbergLand,48.260946849999996,10.885834557912528
Robert Frenzel Sanitärinstallations- und Heizungsbau GmbH,"27619 Schiffdorf-Spaden, Germany",27619,150,WittmundLand;StadeLand;AmmerlandLand;DiepholzLand,53.54569511658477,8.671585249027252
Roland Gageur Elektrotechnik GmbH,"22399 Hamburg, Germany",22399,150,StadeLand;KielLandeshauptstadt,53.66383835400708,10.07222290568866
Roland Hellmann GmbH,"42857 Remscheid, Germany",42857,150,Steinfurt;Euskirchen;LeverkusenStadt;Rhein_Erft_;Coesfeld,51.17330656514413,7.163827766990149
Rose Elektrotechnik GmbH,"17094 Burg Stargard, Germany",17094,150,,53.49269455620858,13.302271999205754
Roter Kältetechnik GmbH,"30855 Langenhagen, Germany",30855,150,Minden_Luebbecke;BraunschweigStadt;GifhornLand,52.4581620272725,9.71211291325677
ROTEX Heating Systems GmbH,"74363 Güglingen, Germany",74363,150,DonnersbergLand;BodenseeLand;BadKissingenLand;MannheimUniversitaetsstadt,49.06806048803568,9.012564783491385
ROTH INDUSTRIES GMBH & CO. KG,"35232 Dautphetal, Germany",35232,150,KoblenzStadt;Kasseldocumenta_Stadt;Darmstadt_DieburgLand;AschaffenburgLand;Main_Taunus_Land,50.85216556642339,8.578614910328774
Rothe Heizung Sanitär,"31848 Bad Münder am Deister, Germany",31848,150,UelzenLand;DiepholzLand;NienburgWeserLand;FrieslandLand;Goettingen,52.2025371,9.4162397123849
RS Sanitär- und Gasheizungsbau GmbH,"52146 Würselen, Germany",52146,150,Heinsberg;BonnStadt;GelsenkirchenStadt;KrefeldStadt;DortmundStadt,50.82927905,6.152075575967592
Rüdiger Beck Elektrotechnik,"71726 Benningen, Germany",71726,150,GoeppingenLand;WormsStadt;Neustadta.d.Waldnaab,48.944049057428664,9.239564551278681
Rühle + Wenger GmbH,"70186 Stuttgart (Gablenberg), Germany",70186,150,HeidelbergStadtStadt;GermersheimLand;Neustadta.d.Waldnaab;TuebingenLand;FreudenstadtLand,48.77595074885236,9.207277036702903
RUHSTRAT Haus- und Versorgungstechnik GmbH,"37079 Göttingen, Germany",37079,150,Ilm_Land;HolzmindenLand;Schmalkalden_Meiningen;HildesheimLand;Hoexter,51.5481388611715,9.88432321836156
Ruml & Feller GmbH,"86633 Neuburg an der Donau, Germany",86633,150,EichstaettLand;Amberg_SulzbachLand;Neu_UlmLand;AugsburgLandLand;KelheimLand,48.745627999999996,11.187972867184929
Sanitär- & Heizungstechnik Alfons Höke,"45527 Hattingen, Germany",45527,150,Coesfeld;Viersen;SolingenStadt;DuesseldorfStadt;BochumStadt,51.37455775,7.209486897654317
Sanitär-Heizung-Solartechnik Inh. Peer Schreiner,"59071 Hamm, Germany",59071,150,Waldeck_FrankenbergLand;MuelheimanderRuhrStadt;Kasseldocumenta_Stadt;SchaumburgLand;HagenStadt,51.672150099999996,7.901836743513671
Sanitärinstallation Hesse GmbH,"01277 Dresden, Germany",1277,150,ChemnitzStadt,,
Sanitärtechnik- Großhandel Reinwald Wagner GmbH,"09514 Lengefeld, Germany",9514,150,ErzgebirgsLand;AltenburgerLandLand,,
Schäffer Haustechnik GmbH,"86348 Kissing, Germany",86348,150,,,
Scharf GmbH & Co.KG,"64291 Darmstadt, Germany",64291,150,Aschaffenburg;WiesbadenLandeshauptstadt;DonnersbergLand;Dingolfing_LandauLand;WetterauLand,49.91533383398797,8.657133269360619
Scheffel GmbH & Co. KG,"71277 71277, Germany",71277,150,TuttlingenLand;Neu_UlmLand;Rhein_Neckar_Land;MannheimUniversitaetsstadt,48.810943949999995,8.926513146569139
Scheimann Haustechnik GmbH & Co.KG,"12247 Berlin, Germany",12247,150,Potsdam_MittelmarkLand,52.4389482,13.347686072403539
Schenk Sanitär- und Heizungstechnik GmbH,"13437 Berlin, Germany",13437,150,UckermarkLand,52.5920686,13.324557725803153
"Schlecht Flaschnerei, Sanitär, Heizung","88471 Laupheim, Germany",88471,150,LindauBodenseeLand;HarburgLand;Memmingen;CalwLand,48.237171867695814,9.901195768848584
Schlecht GmbH,"94234 Viechtach, Germany",94234,150,SchwandorfLand;VerdenLand,49.09077375,12.923882574101086
"Schmidt Heizung, Sanitär, Solar Freiberg GmbH","09599 Freiberg, Germany",9599,150,MeißenLand;MittelsachsenLand,,
Schmidt+Eger GmbH,"76227 Karlsruhe, Germany",76227,150,StuttgartLandeshauptstadt;ZollernalbLand;NeunkirchenLand;HeilbronnLandLand;BoeblingenLand,48.995232266296696,8.467449712324074
SCHÖNECKER Gebäudetechnik GmbH,"79110 Freiburg, Germany",79110,150,KonstanzLand;Baden_BadenStadtStadt,48.015804434858666,7.816799330535132
Schwedisches Wärmepumpen Center,"03042 Cottbus, Germany",3042,150,Oberspreewald_LausitzLand;CottbusStadt;MeißenLand,,
Schwering GmbH,"46286 Dorsten-Rhade, Germany",46286,150,Heinsberg;BochumStadt;HagenStadt;OsnabrueckStadt;Ennepe_Ruhr_,51.73752594820496,7.000307438813107
Schwuchow Sanitär- und Heizungs GmbH,"12107 Berlin, Germany",12107,150,BerlinBundesland;Teltow_FlaemingLand;Elbe_ElsterLand;BurgenlandLand;MagdeburgLandeshauptstadt,52.42826875,13.396522187601608
seepex GmbH,"46240 Bottrop, Germany",46240,150,Coesfeld;AltenkirchenWesterwald;Mettmann;Ennepe_Ruhr_;KrefeldStadt,51.54250187454598,6.945389400523269
Selz & Cie GmbH,"69126 Heidelberg, Germany",69126,150,LudwigshafenamRheinStadt;FrankfurtamMainStadt;MannheimUniversitaetsstadt;AschaffenburgLand;Rhein_Neckar_Land,49.37683213315534,8.690933393159426
SH Siegerland -SHK Gebäudetechnik,"57258 Freudenberg, Germany",57258,150,OdenwaldLand;OberhausenStadt;WiesbadenLandeshauptstadt;MoenchengladbachStadt;Unna,50.89707618615619,7.896759030674017
SHK Brodde,"48431 Rheine, Germany",48431,150,BielefeldStadt;OsnabrueckStadt,52.275526,7.4263621001627005
Siebert Gebäudetechnik GmbH & Co. KG,"34376 Immenhausen, Germany",34376,150,GothaLand;Hameln_PyrmontLand;Unna;Herford,51.43404365,9.481462955368736
Siegmund & Schulze GmbH,"12524 Berlin, Germany",12524,150,Potsdam_MittelmarkLand;Oder_SpreeLand;CottbusStadt,52.411789999999996,13.548143876466167
Silbereis GmbH,"69226 Nußloch, Germany",69226,150,LudwigsburgLand;RastattLand;NeustadtanderWeinstraße;PirmasensStadt,49.32435271383889,8.688085713178133
SINA GmbH,"45239 Essen-Werden, Germany",45239,150,KoelnStadt;MoenchengladbachStadt;HammStadt;EmslandLand,51.385900863426194,7.012700924034779
Solartec Röder GmbH,"63607 Wächtersbach, Germany",63607,150,MiltenbergLand;Main_SpessartLand;Rhein_Hunsrueck_Land;HeidelbergStadtStadt;Aschaffenburg,50.264238515060605,9.296386317573523
Sparka Heizung-Sanitär-Klimatechnik,"46147 Oberhausen, Germany",46147,150,DortmundStadt;Olpe;OsnabrueckStadt;Rhein_Sieg_;EssenStadt,51.54270824966081,6.814471072802733
Speck Gebäudetechnik GmbH,"31311 Uetze, Germany",31311,150,Herford;LueneburgLand,52.45807897943923,10.160032362671094
Stenzel GmbH,"72760 Reutlingen, Germany",72760,150,ReutlingenLand;KarlsruheStadtStadt;Dingolfing_LandauLand,48.51056055922192,9.204636901532032
Stephan Simon MEISTER Heizungsbau & Sanitärtechnik,"63073 Offenbach am Main, Germany",63073,150,Siegen_Wittgenstein;KoblenzStadt,50.087265350298175,8.807431052035156
Stöckicht GmbH Inh. me. Gerald Schwalbach,"65201 Wiesbaden, Germany",65201,150,OffenbachamMainStadt;GrafschaftBentheimLand;Darmstadt;MainzStadt,50.05297929511992,8.184961236413109
Stoltenberg Energie GmbH,"24217 Schönberg, Germany",24217,150,Ploen;Pinneberg,54.40152236160995,10.372623442145501
Streicher GmbH - Heizung - Sanitär,"71720 Oberstenfeld, Germany",71720,150,GoeppingenLand;HaßbergeLand;SchwaebischHallLand;UlmUniversitaetsstadtStadt;Darmstadt_DieburgLand,49.027743271682056,9.330927250115396
Strobel GmbH,"72654 Neckartenzlingen, Germany",72654,150,LudwigsburgLand;BirkenfeldLand;HeilbronnStadtStadt;GoeppingenLand,48.584664149999995,9.244140040439877
STULZ GmbH,"22457 Hamburg, Germany",22457,150,Rendsburg_Eckernfoerde;FlensburgStadt,53.637559257831875,9.911021378607174
Süwag Energie AG,"65929 Frankfurt am Main, Germany",65929,150,Rheingau_Taunus_Land;Aschaffenburg;MiltenbergLand;WormsStadt;Mayen_KoblenzLand,50.10733100329648,8.54034526315714
Team Gruner,"32120 Hiddenhausen, Germany",32120,150,Unna;Hoexter;Steinfurt;VechtaLand;BielefeldStadt,52.155857600000004,8.641268352486497
TECHMASTER GmbH,"72379 Hechingen, Germany",72379,150,Breisgau_Hochschwarzwald;BirkenfeldLand;KarlsruheStadtStadt;BiberachLand;Neckar_Odenwald_,48.35438889208323,8.966252713872871
teraqsoltec solar,"12687 Berlin, Germany",12687,150,BarnimLand,52.5566249,13.568686168250167
tetec thermo-technik Müller GmbH & Co. KG,"85386 Eching, Germany",85386,150,OstallgaeuLand;Saale_Holzland_Land;Pfaffenhofena.d.IlmLand;HarburgLand;Weißenburg_Gunzenhausen,48.298731950000004,11.613584126603463
Teucher GmbH,"09456 Arnsfeld, Germany",9456,150,Hof,,
tga-service gmbh,"64372 Ober-Ramstadt, Germany",64372,150,PforzheimStadtStadt;SuedwestpfalzLand;OffenbachLand;Main_Tauber_Land;MannheimUniversitaetsstadt,49.8191469,8.753831940856443
Thomas Gerold GmbH,"83707 Bad Wiessee-Ringsee, Germany",83707,150,Weideni.d.OPf.;TraunsteinLand,47.705404849999994,11.702358922769296
Thorsten Kißler Heizung & Sanitär,"67133 Maxdorf, Germany",67133,150,Dingolfing_LandauLand;LudwigshafenamRheinStadt,49.48710955,8.291270825110097
Torsten Böres GmbH,"55606 Oberhausen, Germany",55606,150,Saarpfalz_Land;Merzig_WadernLand;AhrweilerLand;VulkaneifelLand;NeustadtanderWeinstraße,49.77894222221455,7.508845865349758
Torsten Kühl Gas- und Wasserinstallateurmeister,"01640 Coswig, Germany",1640,150,NordsachsenLand;Groß_GerauLand;SaechsischeSchweiz_Osterz;BautzenLand;DresdenStadt,,
Trane Klima- und Kältetechnisches Büro GmbH,"82152 Krailling, Germany",82152,150,LandsbergamLechLand;Muehldorfa.InnLand;RosenheimLandLand;Weilheim_SchongauLand,48.098451499999996,11.427428224225944
TRAUB GmbH & Co. Haustechnik KG,"82031 Grunwald, Germany",82031,150,Rosenheim;Muehldorfa.InnLand;SaaleLand;AugsburgLandLand;Ingolstadt,48.04628985,11.530379384576339
Ullmann Heizungsbau GmbH,"01844 Neustadt, OT Langburkersdorf, Germany",1844,150,MeißenLand,,
Upmeyer Haustechnik GmbH,"49525 Lengerich, Germany",49525,150,EssenStadt;Herford;Borken;Soest;RemscheidStadt,52.16615925,7.837779570123027
Uponor GmbH,"97437 Hassfurt, Germany",97437,150,Bayreuth;KitzingenLand;SonnebergLand,50.042783,10.508615785843997
Uwe Felsmann GmbH,"64342 Seeheim, Germany",64342,150,RastattLand;WormsStadt;MiltenbergLand;AschaffenburgLand;KuselLand,49.76105295,8.664219196386398
Uwe Zimmer Heizung - Sanitär - Dachklempnerarbeiten,"15295 Brieskow-Finkenheerd, Germany",15295,150,BerlinBundesland;OberhavelLand,52.240818149999996,14.592811453849688
Versorgungstechnik BSK GmbH,"02625 Bautzen, Germany",2625,150,ChemnitzStadt,,
Volker Blunck GmbH - Heizung - Sanitär - Elektro,"24306 Bösdorf, Germany",24306,150,Dithmarschen;LueneburgLand,54.16196437475095,10.422804842511788
Volker Kosack - Installateur- & Heizungsbaumeister,"52080 Aachen, Germany",52080,150,WuppertalStadt;Maerkischer;EssenStadt;GrafschaftBentheimLand;DuisburgStadt,50.78687090014909,6.1483466226711325
VWT Wärmetechnik GmbH,"55129 Mainz, Germany",55129,150,FrankfurtOderStadt;Limburg_WeilburgLand;AschaffenburgLand;Rhein_Pfalz_Land;RegionalverbandSaarbruecken,49.9516888822223,8.269561663076253
W. Förster GmbH,"99198 Erfurt-Büßleben, Germany",99198,150,Coburg;ErfurtStadt,51.0272819260234,11.130112980559664
W. Köthe GmbH,"30519 Hanover, Germany",30519,150,Minden_Luebbecke;PeineLand;BoerdeLand;Hameln_PyrmontLand;Luechow_DannenbergLand,52.33844672842099,9.779054788104087
Wagenhäuser GmbH,"97437 Haßfurt, Germany",97437,150,HaßbergeLand;Wunsiedeli.Fichtelgebirge;Erlangen_HoechstadtLand;Neumarkti.d.OPf.Land,50.042783,10.508615785843997
Walter Falk GmbH,"73252 Lenningen, Germany",73252,150,Alb_Donau_Land;Main_Tauber_Land;EsslingenLand;PforzheimStadtStadt,48.5488322,9.50914586110837
Walter Fehring GmbH,"33014 Bad Driburg, Germany",33014,150,Warendorf;Lippe;OsnabrueckLand;RegionHannoverLand;Kasseldocumenta_Stadt,51.723744247817905,9.028156820722128
Walter Gräfenstein GmbH,"45473 Mülheim an der Ruhr, Germany",45473,150,LeverkusenStadt;SolingenStadt;Recklinghausen,51.44401451275198,6.898269913775182
Walter Langen KG,"54294 Trier, Germany",54294,150,Merzig_WadernLand;VulkaneifelLand;GrafschaftBentheimLand,49.73826062390076,6.613071471223
Wärme mit System.de Ltd.,"36341 Lauterbach (Hessen), Germany",36341,150,EisenachStadt;Schmalkalden_Meiningen,50.64090785,9.35525261380022
Wärmetechnik Leickel GmbH,"44653 Herne, Germany",44653,150,Mettmann;RemscheidStadt;Unna,51.543646389353185,7.160851275986912
WätaS Wärmetauscher Sachsen GmbH,"09526 Olbernhau, Germany",9526,150,SaechsischeSchweiz_Osterz,,
"Weber GmbH, Elektro- und Solaranlagen","74078 Heilbronn-Kirchhausen, Germany",74078,150,HohenloheLand;KaiserslauternStadt;FreudenstadtLand;AhrweilerLand;Wuerzburg,49.17503491101242,9.162449312278756
Weisky & Co. GmbH,"83352 Altenmarkt, Germany",83352,150,MuenchenLandLand;TraunsteinLand,47.99844605,12.511632684539794
Wenzel & Herzog GmbH,"15890 Schlaubetal / OT Fünfeichen, Germany",15890,150,Oberspreewald_LausitzLand;Maerkisch_OderlandLand,52.16005045,14.571117922279708
Werner Peters GmbH,"46485 Wesel, Germany",46485,150,BonnStadt;BochumStadt;LeverkusenStadt;Heinsberg;Mettmann,51.665973765835005,6.644380459407364
Werner Wallraff GmbH & Co.KG,"48157 Munster, Germany",48157,150,BochumStadt;MuensterStadt;CloppenburgLand;DiepholzLand,51.995986400171915,7.680717235070643
Werrlein GmbH & Co.KG,"91443 Scheinfeld, Germany",91443,150,Schweinfurt;Neumarkti.d.OPf.Land;BayreuthLandLand;KulmbachLand,49.67021355,10.468488069698399
Wessel & Tyc Haustechnik GmbH,"28279 Bremen, Germany",28279,150,RotenburgWuemmeLand;HamburgBundesland;DiepholzLand,53.04047020894537,8.847183565260249
Weyher Haustechnik GmbH,"28844 Weyhe, Germany",28844,150,DiepholzLand;OsterholzLand;CuxhavenLand;AmmerlandLand;OldenburgOldenburgStadt,52.98475952927596,8.845120708002035
Willi Hammer GmbH - Sanitär Heizung Solar,"75181 Pforzheim-Eutingen, Germany",75181,150,LandauinderPfalzStadt;MannheimUniversitaetsstadt;GoeppingenLand;HeilbronnStadtStadt;Darmstadt_DieburgLand,48.8738261,8.765233532673923
Willig Gas - Wasser - Wärme,"64283 Darmstadt, Germany",64283,150,Neustadta.d.Waldnaab;DonnersbergLand;KarlsruheStadtStadt;Main_Tauber_Land;WetterauLand,49.87009567406771,8.653086493313005
WILO SE,"44263 Dortmund, Germany",44263,150,DuesseldorfStadt;Waldeck_FrankenbergLand;Soest;DuisburgStadt;MoenchengladbachStadt,51.48954256743802,7.503768132969681
Winfried Zahnen Gas- und Wasserinstallateurmeister,"54595 Watzerath, Germany",54595,150,SolingenStadt,50.21129084970681,6.419952873789955
Wittemann GmbH,"76297 Stutensee-Friedrichstal, Germany",76297,150,SuedwestpfalzLand;FrankenthalPfalzStadt;Main_Kinzig_Land;FreiburgimBreisgauStadt;MiltenbergLand,49.08467320544047,8.481765478387326
"Woermann & Söhne, sanitäre Anlagen und Heizung GmbH","14163 Berlin (Berlin-Zehlendorf), Germany",14163,150,AltmarkSalzwedelLand;Anhalt_BitterfeldLand;BarnimLand;BrandenburganderHavel;BurgenlandLand,52.4372333,13.241466027255049
Wolfgang Kozian Heizungsbau GmbH,"63128 Dietzenbach, Germany",63128,150,AhrweilerLand;AltenkirchenWesterwald;Alzey_WormsLand;Aschaffenburg;BadDuerkheimLand,50.010799750000004,8.79072952449495
Würth Elektrogroßhandel GmbH & Co. KG,"91522 Ansbach, Germany",91522,150,Aichach_FriedbergLand;Alb_Donau_Land;Amberg;Ansbach;AnsbachLandLand,49.28887445,10.55976933809508
Wust & Heck GmbH,"55471 Reich / Hunsrück, Germany",55471,150,AhrweilerLand;AltenkirchenWesterwald;Alzey_WormsLand;Aschaffenburg;BadDuerkheimLand,49.986385905901514,7.446717489006335
Zdoniak Elektrotechnik,"23936 Grevesmühlen, Germany",23936,150,Ostholstein,53.83826208315358,11.195553764592445
Zinnenlauf Service GmbH,"40472 Düsseldorf, Germany",40472,150,AltenkirchenWesterwald;BochumStadt;BonnStadt;Borken;BottropStadt,51.272641027116244,6.807200021807967
Zita Jacobs GmbH,"66740 Saarlouis, Germany",66740,150,Alzey_WormsLand;BadDuerkheimLand;Bernkastel_WittlichLand,49.319476570365616,6.75308444097593
ZLE Ehrlich GmbH,"76532 Baden-Baden, Germany",76532,150,Alzey_WormsLand;Baden_BadenStadtStadt;BirkenfeldLand;BoeblingenLand,48.8031151,8.208848972746502
ZOGEL GmbH,"38300 Wolfenbüttel, Germany",38300,150,AltmarkSalzwedelLand;BraunschweigStadt;BurgenlandLand,52.15639204447906,10.554439097123396
ZWS Zukunftsorientierte Wärme Systeme GmbH,"47506 Neukirchen-Vluyn, Germany",47506,150,AltenkirchenWesterwald;BochumStadt;BonnStadt;Borken;BottropStadt,51.43527775,6.5506149917785335
ELITEC Elektrische Industrietechnik GmbH,"64653 Lorsch, Germany",64653,150,AhrweilerLand;Alzey_WormsLand;Aschaffenburg;BadDuerkheimLand;BirkenfeldLand,49.6426967,8.556536015454096
Kälte-Aktiv Team GmbH,"91154 Roth, Germany",91154,150,Aichach_FriedbergLand;Amberg;Ansbach;Augsburg;BadToelz_Wolfratshausen,49.23688415,11.118101625557134
Remko GmbH & Co. KG,"32791 Lage, Germany",32791,150,BielefeldStadt;BochumStadt,51.98650021960944,8.784133580599393
Carl Mettler Elektrogroßhandels-GmbH,"66117 Saarbrücken, Germany",66117,150,AhrweilerLand;Alzey_WormsLand;BadDuerkheimLand;Bernkastel_WittlichLand,49.227999887692896,6.9756571483495655
H2 Umwelttechnik GbR,"52428 Jülich, Germany",52428,150,AltenkirchenWesterwald;BochumStadt;BonnStadt;Borken;BottropStadt,50.92898835,6.3602062087263205
Nesseler + Esser GmbH & Co. KG,"50389 Wesseling, Germany",50389,150,AltenkirchenWesterwald;Bernkastel_WittlichLand;BochumStadt;BonnStadt;Borken,50.815906346082045,6.977998337090839
Neukälte Kälte- Klima- und Wärmepumpen GmbH,"66292 Riegelsberg, Germany",66292,150,Alzey_WormsLand;BadDuerkheimLand;Bernkastel_WittlichLand,49.30878835158419,6.935701052781656
Schalk GmbH secespol deutschland gmbh,"86500 Kutzenhausen, Germany",86500,150,Aichach_FriedbergLand;Alb_Donau_Land;Augsburg;BadToelz_Wolfratshausen;BergstraßeLand,48.353873899999996,10.679009437129743
Secespol Deutschland gmbh,"45141 Essen, Germany",45141,150,AltenkirchenWesterwald;BielefeldStadt;BochumStadt;BonnStadt;Borken,51.47450091374141,7.026428301582777
Maxhütte Technologie GmbH & Co. KG,"92237 Sulzbach-Rosenberg, Germany",92237,150,Amberg;Ansbach;Bamberg;Bayreuth,49.51259165,11.728330663641984
Viessmann Werke GmbH & Co. KG,"35108 Allendorf (Eder), Germany",35108,150,AltenkirchenWesterwald,51.0383128,8.683138839169864
